NAME,STATUS,WATERSHED,COUNCIL_DI,PRIMARY_FE,SW_TREE_TR,SW_PLANTER,SW_BUMPOUT,RAIN_GARDE,SW_BASIN,INFILTRATI,POROUS_PAV,SWALE,SW_WETLAND,CISTERN_RA,GREEN_ROOF,OTHER,LINK,LONGITUDE,LATITUDE,LINK_1,LINK_2,LAT,LNG
Yorktown Park,In Design,Delaware,5,Stormwater Planter, ,2 Stormwater Planters,7 Stormwater Bumpouts, , ,6 Infiltration/Storage Trenches, , , , , , ,alt,-75.15592915,39.9743532,http://www.phillywatersheds.org/what_were_doing/,green_infrastructure/tools/stormwater-planter,39.9743612684,-75.1559309181
"Woolston Ave, Walnut Ln, Rodney St (Simons Recreation Center)",Constructed,TTF,9,Stormwater Tree Trench,5 Stormwater Tree Trenches, , , , , , , , , , , ,alt,-75.15840743,40.06091359,http://www.phillywatersheds.org/what_were_doing/,green_infrastructure/tools/stormwater_tree_trench,40.0609216769,-75.1584092027
Woodland Ave (Tiger III),In Design,Schuylkill,"2, 3",Stormwater Tree Trench,1 Stormwater Tree Trench, , , , , , , , , , , ,alt,-75.22563827,39.93363897,http://www.phillywatersheds.org/what_were_doing/,green_infrastructure/tools/stormwater_tree_trench,39.9336470309,-75.2256400554
"Woodcrest, Graham, Malvern, 59th (Beeber Middle School)",In Design,Schuylkill,4,Stormwater Tree Trench,1 Stormwater Tree Trench, , , , , , , , , , , ,alt,-75.24215508,39.98647497,http://www.phillywatersheds.org/what_were_doing/,green_infrastructure/tools/stormwater_tree_trench,39.9864830393,-75.2421568732
Womrath Park,Constructed,TTF,7,Rain Garden, , , ,1 Rain Garden, ,1 Infiltration/Storage Trench, ,1 Swale, , , , ,http://www.phillywatersheds.org/what_were_doing/green_infrastructure/projects/womrath_park,-75.09070503,40.00840916,http://www.phillywatersheds.org/what_were_doing/,green_infrastructure/tools/rain_garden,40.0084172433,-75.0907067808
Wolf St (Sharswood School and Our Lady of Carmel School),In Design,Delaware,1,Stormwater Tree Trench,1 Stormwater Tree Trench, , , , , , , , , , , ,alt,-75.15139344,39.91885191,http://www.phillywatersheds.org/what_were_doing/,green_infrastructure/tools/stormwater_tree_trench,39.9188599731,-75.1513952007
Wister Woods Park,In Construction,TTF,8,Rain Garden, , , ,4 Rain Gardens, , , , , , , , ,alt,-75.15611765,40.03377378,http://www.phillywatersheds.org/what_were_doing/,green_infrastructure/tools/rain_garden,40.0337818663,-75.1561194244
Wissinoming Park,In Design,Delaware,6,Rain Garden, , , ,1 Rain Garden, , , ,1 Swale, , , , ,alt,-75.06858926,40.02422065,http://www.phillywatersheds.org/what_were_doing/,green_infrastructure/tools/rain_garden,40.0242287359,-75.0685910078
Windrim Ave from Wayne Ave to Germantown Ave,In Design,TTF,8,Stormwater Bumpout, , ,3 Stormwater Bumpouts, , ,1 Infiltration/Storage Trench, , , , , , ,alt,-75.1596213,40.0220575,http://www.phillywatersheds.org/what_were_doing/,green_infrastructure/tools/stormwater_bumpout,40.0220655805,-75.1596230779
William Harrity School,Constructed,Cobbs-Darby,3,Stormwater Tree Trench,2 Stormwater Tree Trenches, , , , , , , , , , , ,alt,-75.23605342,39.94896657,http://www.phillywatersheds.org/what_were_doing/,green_infrastructure/tools/stormwater_tree_trench,39.9489746332,-75.2360552123
William Gray Youth Center,In Construction,Delaware,5,Stormwater Tree Trench,3 Stormwater Tree Trenches, , , , , , , , , , , ,alt,-75.15351653,39.97737725,http://www.phillywatersheds.org/what_were_doing/,green_infrastructure/tools/stormwater_tree_trench,39.9773853187,-75.1535182963
William Dick Elementary,In Construction,Delaware,5,Stormwater Tree Trench,1 Stormwater Tree Trench, , ,1 Rain Garden, ,1 Infiltration/Storage Trench, , , , , , ,alt,-75.17365642,39.98614282,http://www.phillywatersheds.org/what_were_doing/,green_infrastructure/tools/stormwater_tree_trench,39.9861508872,-75.1736582001
William Cramp School,In Construction,Delaware,7,Stormwater Tree Trench,2 Stormwater Tree Trenches, , , , , , , , , , , ,alt,-75.12996617,40.00252018,http://www.phillywatersheds.org/what_were_doing/,green_infrastructure/tools/stormwater_tree_trench,40.0025282519,-75.1299679303
William Cramp School,In Design,Delaware,7,Other, , , , , , , , , , , , ,alt,-75.12996442,40.00256545,http://www.phillywatersheds.org/what_were_doing/,green_infrastructure/tools,40.0025735264,-75.1299661832
"Westmoreland, C, D, Ontario (Mckinley Playground)",In Construction, ,7,Stormwater Tree Trench,1 Stormwater Tree Trench, , , , , , , , , , , ,alt,-75.12174071,39.99996893,http://www.phillywatersheds.org/what_were_doing/,green_infrastructure/tools/stormwater_tree_trench,39.9999770037,-75.1217424668
Westmoreland and Tulip,In Design,Delaware,1,Stormwater Tree Trench,3 Stormwater Tree Trenches, , , , , , , , , , , ,alt,-75.1060731,39.99139343,http://www.phillywatersheds.org/what_were_doing/,green_infrastructure/tools/stormwater_tree_trench,39.9914015009,-75.1060748516
West Mill Creek Playground Tennis Courts,In Design,Schuylkill,3,Infiltration/Storage Trench, , , , , ,1 Infiltration/Storage Trench, , , , , , ,alt,-75.2250356,39.96916215,http://www.phillywatersheds.org/what_were_doing/,green_infrastructure/tools/infiltration_storage_trench,39.9691702207,-75.2250373933
West Mill Creek Farm Swales,Constructed,Schuylkill,3,Rain Garden, , , ,1 Rain Garden, , , ,1 Swale, , , , ,http://www.phillywatersheds.org/what_were_doing/green_infrastructure/projects/mill_creek_farm,-75.21939139,39.96632177,http://www.phillywatersheds.org/what_were_doing/,green_infrastructure/tools/rain_garden,39.9663298367,-75.2193931785
Welsh School,In Construction,Delaware,7,Stormwater Tree Trench,1 Stormwater Tree Trench, , ,1 Rain Garden, ,1 Infiltration/Storage Trench, , , , , , ,alt,-75.13966542,39.98677127,http://www.phillywatersheds.org/what_were_doing/,green_infrastructure/tools/stormwater_tree_trench,39.9867793405,-75.1396671837
Weinberg Park,In Planning,Delaware,1,Stormwater Tree Trench,1 Stormwater Tree Trench, , , , , , ,1 Swale, , , , ,alt,-75.15648538,39.92122193,http://www.phillywatersheds.org/what_were_doing/,green_infrastructure/tools/stormwater_tree_trench,39.9212299859,-75.1564871502
Weccacoe Playground,In Design,Delaware,1,Rain Garden, , , ,1 Rain Garden, ,1 Infiltration/Storage Trench, , , , , , ,alt,-75.15075314,39.93802317,http://www.phillywatersheds.org/what_were_doing/,green_infrastructure/tools/rain_garden,39.9380312286,-75.1507549088
Wayne Ave and Abbottsford Ave,In Design,TTF,8,Infiltration/Storage Trench, , , , , ,1 Infiltration/Storage Trench, , , , , , ,alt,-75.16494662,40.02390355,http://www.phillywatersheds.org/what_were_doing/,green_infrastructure/tools/infiltration_storage_trench,40.023911631,-75.1649483975
Warrington - 54th to 55th,In Design,Cobbs-Darby,3,Stormwater Bumpout, , ,1 Stormwater Bumpout, , , , , , , , , ,alt,-75.22619763,39.94139158,http://www.phillywatersheds.org/what_were_doing/,green_infrastructure/tools/stormwater_bumpout,39.9413996427,-75.2261994226
Wakisha Charter School,In Construction,Delaware,5,Stormwater Tree Trench,3 Stormwater Tree Trenches, , , , , , , , , , , ,alt,-75.15082757,39.97488314,http://www.phillywatersheds.org/what_were_doing/,green_infrastructure/tools/stormwater_tree_trench,39.9748912124,-75.1508293401
Wakefield Park,Constructed,TTF,8,Rain Garden, , , ,2 Rain Gardens, , , , , , , , ,alt,-75.15067017,40.03342406,http://www.phillywatersheds.org/what_were_doing/,green_infrastructure/tools/rain_garden,40.0334321375,-75.1506719368
Wagner Louis Middle School,In Design,TTF,8,Stormwater Tree Trench,2 Stormwater Tree Trenches, , , , , , , , , , , ,alt,-75.14769065,40.05172939,http://www.phillywatersheds.org/what_were_doing/,green_infrastructure/tools/stormwater_tree_trench,40.0517374769,-75.1476924183
Vernon Park,In Design,TTF,8,Stormwater Tree Trench,1 Stormwater Tree Trench, , , , , , , , , , , ,alt,-75.176712,40.03581067,http://www.phillywatersheds.org/what_were_doing/,green_infrastructure/tools/stormwater_tree_trench,40.0358187499,-75.1767137806
Vare Recreation Center,In Planning,Schuylkill,2,Stormwater Tree Trench,1 Stormwater Tree Trench, , , , ,1 Infiltration/Storage Trench, , , , , , ,alt,-75.18931441,39.93129301,http://www.phillywatersheds.org/what_were_doing/,green_infrastructure/tools/stormwater_tree_trench,39.9313010711,-75.1893161869
Vacant Lot on Chelten Ave,In Design,TTF,8,Rain Garden, , , ,1 Rain Garden, , , , , , , , ,alt,-75.17210453,40.03770115,http://www.phillywatersheds.org/what_were_doing/,green_infrastructure/tools/rain_garden,40.0377092355,-75.1721063113
Upland Way,In Design,Schuylkill,4,Stormwater Tree Trench,1 Stormwater Tree Trench, ,1 Stormwater Bumpout, , , , ,1 Swale, , , , ,alt,-75.24070747,39.9852652,http://www.phillywatersheds.org/what_were_doing/,green_infrastructure/tools/stormwater_tree_trench,39.9852732666,-75.2407092645
Trenton Ave and Norris St,Constructed,Delaware,1,Stormwater Tree Trench,1 Stormwater Tree Trench, , ,1 Rain Garden, ,1 Infiltration/Storage Trench, , , , , , ,alt,-75.1318371,39.97933029,http://www.phillywatersheds.org/what_were_doing/,green_infrastructure/tools/stormwater_tree_trench,39.9793383577,-75.1318388627
Trenton & Auburn Playground,In Construction, ,1,Stormwater Basin, , , , ,1 Stormwater Basin, , , , , , , ,alt,-75.11681155,39.9864648,http://www.phillywatersheds.org/what_were_doing/,green_infrastructure/tools/stormwater_basin,39.9864728716,-75.1168133068
"Thouron Ave, Mohican St, Rugby St, W Washington Ln (Pennypacker School)",In Design,TTF,9,Stormwater Tree Trench,1 Stormwater Tree Trench, , , , , , , , , , , ,alt,-75.15867626,40.06505695,http://www.phillywatersheds.org/what_were_doing/,green_infrastructure/tools/stormwater_tree_trench,40.0650650358,-75.1586780392
Thouron Ave and Cliveden St Alley,In Design,TTF,9,Other, , , , , , , , , , , , ,alt,-75.16201178,40.06707838,http://www.phillywatersheds.org/what_were_doing/,green_infrastructure/tools,40.0670864708,-75.1620135553
"Thompson, Elkhart, Edgemont, Indiana (Stokley Playground)",In Design,Delaware,1,Stormwater Tree Trench,2 Stormwater Tree Trenches, , , , , , , , , , , ,alt,-75.10700829,39.98222704,http://www.phillywatersheds.org/what_were_doing/,green_infrastructure/tools/stormwater_tree_trench,39.9822351143,-75.107010044
"Thompson, Conestoga",In Design,Schuylkill,"3, 4",Stormwater Tree Trench,1 Stormwater Tree Trench, , , , , , , , , , , ,alt,-75.22784012,39.97293538,http://www.phillywatersheds.org/what_were_doing/,green_infrastructure/tools/stormwater_tree_trench,39.9729434495,-75.2278419083
Thompson St and Huntingdon St,In Design,Delaware,1,Stormwater Tree Trench,1 Stormwater Tree Trench, , , , , , , , , , , ,alt,-75.1178129,39.97697993,http://www.phillywatersheds.org/what_were_doing/,green_infrastructure/tools/stormwater_tree_trench,39.976987999,-75.1178146543
Thompson St and Columbia Ave,Constructed,Delaware,5,Stormwater Tree Trench,2 Stormwater Tree Trenches, ,1 Stormwater Bumpout, , , , , , , , , ,alt,-75.13100253,39.97232046,http://www.phillywatersheds.org/what_were_doing/,green_infrastructure/tools/stormwater_tree_trench,39.9723285266,-75.1310042917
Tarken Playground,In Design,TTF,8,Infiltration/Storage Trench, , , , , ,1 Infiltration/Storage Trench, ,1 Swale, , , , ,alt,-75.0824534,40.0409435,http://www.phillywatersheds.org/what_were_doing/,green_infrastructure/tools/infiltration_storage_trench,40.0409515858,-75.0824551552
Taggert School,In Design,Delaware,1,Stormwater Tree Trench,3 Stormwater Tree Trenches, , , , , , , , , , , ,alt,-75.1553966,39.91704075,http://www.phillywatersheds.org/what_were_doing/,green_infrastructure/tools/stormwater_tree_trench,39.9170488093,-75.1553983637
Tacony Creek Reaches 4/5,In Design,TTF,7,Rain Garden, , , ,1 Rain Garden, , , , , , , , ,alt,-75.10568374,40.02261872,http://www.phillywatersheds.org/what_were_doing/,green_infrastructure/tools/rain_garden,40.0226268003,-75.1056854979
"Summerdale, Longshore, Tyson (J. Hampton Moore School)",In Design,Delaware,"7, 10",Stormwater Tree Trench,1 Stormwater Tree Trench, , , , , , , , , , , ,alt,-75.07718206,40.04972058,http://www.phillywatersheds.org/what_were_doing/,green_infrastructure/tools/stormwater_tree_trench,40.0497286715,-75.077183813
Stinger Square,In Design,Schuylkill,2,Infiltration/Storage Trench, , , ,1 Rain Garden, ,2 Infiltration/Storage Trenches, , , , , , ,alt,-75.19780628,39.93613862,http://www.phillywatersheds.org/what_were_doing/,green_infrastructure/tools/infiltration_storage_trench,39.9361466782,-75.1978080609
Stephen Girard School,Constructed,Schuylkill,2,Stormwater Tree Trench,1 Stormwater Tree Trench, , , , , , , , , , , ,alt,-75.17637329,39.92523747,http://www.phillywatersheds.org/what_were_doing/,green_infrastructure/tools/stormwater_tree_trench,39.9252455342,-75.1763750602
Stenton Park,In Planning,TTF,8,Infiltration/Storage Trench, , , , , ,1 Infiltration/Storage Trench, ,1 Swale, , , , ,alt,-75.15280197,40.02463055,http://www.phillywatersheds.org/what_were_doing/,green_infrastructure/tools/infiltration_storage_trench,40.0246386313,-75.1528037419
"Stenton Avenue and Washington Lane, NE Intersection",In Construction,TTF,9,Rain Garden, , , ,1 Rain Garden, , , , , , , , ,alt,-75.16479734,40.05999198,http://www.phillywatersheds.org/what_were_doing/,green_infrastructure/tools/rain_garden,40.0600000648,-75.1647991199
St. Monica Manor,In Design,Delaware,2,Stormwater Tree Trench,1 Stormwater Tree Trench, , , , , , , , , , , ,alt,-75.15399949,39.91659443,http://www.phillywatersheds.org/what_were_doing/,green_infrastructure/tools/stormwater_tree_trench,39.9166024912,-75.1540012607
St. James Episcopal Church of Kingesessing,In Design,Cobbs-Darby,2,Stormwater Tree Trench,2 Stormwater Tree Trenches, , , , , , , , , , , ,alt,-75.23862514,39.92162095,http://www.phillywatersheds.org/what_were_doing/,green_infrastructure/tools/stormwater_tree_trench,39.9216290078,-75.2386269361
St. Dominic School,In Design,Pennypack,10,Other, , , , , , , , , , , , ,alt,-75.01573641,40.04617072,http://www.phillywatersheds.org/what_were_doing/,green_infrastructure/tools,40.0461788092,-75.0157381413
St. Anne Rectory,In Design,Delaware,1,Stormwater Tree Trench,3 Stormwater Tree Trenches, , , , , , , , , , , ,alt,-75.11868334,39.98206277,http://www.phillywatersheds.org/what_were_doing/,green_infrastructure/tools/stormwater_tree_trench,39.9820708448,-75.1186850985
St Thomas Aquinas School,Constructed,Schuylkill,2,Stormwater Tree Trench,3 Stormwater Tree Trenches, , , , , , , , , , , ,alt,-75.17416094,39.93038928,http://www.phillywatersheds.org/what_were_doing/,green_infrastructure/tools/stormwater_tree_trench,39.9303973423,-75.1741627089
Springfield Ave and Cobbs Creek Island,In Construction,Cobbs-Darby,2,Rain Garden, , , ,2 Rain Gardens, ,1 Infiltration/Storage Trench, , , , , , ,alt,-75.23521789,39.93471312,http://www.phillywatersheds.org/what_were_doing/,green_infrastructure/tools/rain_garden,39.934721183,-75.235219681
Southwest Treatment Plant Parking Lot,In Construction,Schuylkill,2,Rain Garden, , , ,1 Rain Garden, , ,1 Porous Paving Project, , , , , ,alt,-75.21973358,39.88402134,http://www.phillywatersheds.org/what_were_doing/,green_infrastructure/tools/rain_garden,39.8840293916,-75.2197353614
Southwark School,Constructed,Delaware,1,Stormwater Tree Trench,1 Stormwater Tree Trench, , , , , , , , , , , ,alt,-75.15911375,39.92591025,http://www.phillywatersheds.org/what_were_doing/,green_infrastructure/tools/stormwater_tree_trench,39.9259183105,-75.1591155219
Smith Playground,In Design,Schuylkill,2,Stormwater Tree Trench,1 Stormwater Tree Trench, , ,1 Rain Garden, , , , , , , , ,alt,-75.18720261,39.92594688,http://www.phillywatersheds.org/what_were_doing/,green_infrastructure/tools/stormwater_tree_trench,39.9259549426,-75.1872043871
Smith Elementary School,Constructed,Schuylkill,2,Stormwater Tree Trench,1 Stormwater Tree Trench, , , , , , , , , , , ,alt,-75.17596178,39.93459722,http://www.phillywatersheds.org/what_were_doing/,green_infrastructure/tools/stormwater_tree_trench,39.9346052792,-75.1759635524
Sister Clara Muhammad School,In Construction,Schuylkill,3,Stormwater Tree Trench,2 Stormwater Tree Trenches, , , , , , , , , , , ,alt,-75.21615828,39.96984939,http://www.phillywatersheds.org/what_were_doing/,green_infrastructure/tools/stormwater_tree_trench,39.969857452,-75.2161600678
Shissler Playground,Constructed,Delaware,7,Stormwater Tree Trench,2 Stormwater Tree Trenches, , , , , , , , , , , ,alt,-75.13215969,39.97762943,http://www.phillywatersheds.org/what_were_doing/,green_infrastructure/tools/stormwater_tree_trench,39.9776374989,-75.13216145
Sepviva St from Susquehanna Ave to Dauphin St,Constructed,Delaware,1,Infiltration/Storage Trench, , , , , ,1 Infiltration/Storage Trench, , , , , , ,alt,-75.12851272,39.97949058,http://www.phillywatersheds.org/what_were_doing/,green_infrastructure/tools/infiltration_storage_trench,39.9794986511,-75.12851448
Sedgwick Station,In Design,TTF,8,Stormwater Bumpout, , ,1 Stormwater Bumpout, , ,1 Infiltration/Storage Trench, , , , , , ,alt,-75.18693421,40.06379856,http://www.phillywatersheds.org/what_were_doing/,green_infrastructure/tools/stormwater_bumpout,40.0638066417,-75.1869359926
"Sedgley Ave, 22nd St (Cecil B Moore Recreation Center, Reyburn Park)",In Design,Delaware,5,Stormwater Tree Trench,1 Stormwater Tree Trench, ,1 Stormwater Bumpout, , , , , , , , , ,alt,-75.16626646,39.99359492,http://www.phillywatersheds.org/what_were_doing/,green_infrastructure/tools/stormwater_tree_trench,39.9936029955,-75.166268238
"Ruscomb, 17th, Ogontz (Logan School)",In Design,TTF,8,Stormwater Tree Trench,3 Stormwater Tree Trenches, , , , , , , , , , , ,alt,-75.15239947,40.03029394,http://www.phillywatersheds.org/what_were_doing/,green_infrastructure/tools/stormwater_tree_trench,40.0303020244,-75.1524012425
Rowland Ave - Ryan to Vista,In Design,Delaware,6,Infiltration/Storage Trench, , , , , ,1 Infiltration/Storage Trench, , , , , , ,alt,-75.04166287,40.0410518,http://www.phillywatersheds.org/what_were_doing/,green_infrastructure/tools/infiltration_storage_trench,40.0410598826,-75.0416646038
Ross Park,In Design,Delaware,5,Rain Garden, , , ,1 Rain Garden, ,1 Infiltration/Storage Trench, , , , , , ,alt,-75.14667945,39.99938375,http://www.phillywatersheds.org/what_were_doing/,green_infrastructure/tools/rain_garden,39.9993918208,-75.1466812153
Rosehill St (Barton School),In Construction,TTF,7,Stormwater Tree Trench,1 Stormwater Tree Trench, , , , , , , , , , , ,alt,-75.11925509,40.02011269,http://www.phillywatersheds.org/what_were_doing/,green_infrastructure/tools/stormwater_tree_trench,40.0201207693,-75.1192568483
Rockland St,Constructed,TTF,8,Infiltration/Storage Trench, , , , , ,3 Infiltration/Storage Trenches, , , , , , ,alt,-75.14454952,40.02729841,http://www.phillywatersheds.org/what_were_doing/,green_infrastructure/tools/infiltration_storage_trench,40.0273064872,-75.1445512864
Rockland Garden,In Design,TTF,8,Stormwater Tree Trench,1 Stormwater Tree Trench, , , , , , , , , , , ,alt,-75.16240555,40.02684116,http://www.phillywatersheds.org/what_were_doing/,green_infrastructure/tools/stormwater_tree_trench,40.0268492398,-75.1624073279
Ridgewood - 55th to 54th,In Design,Cobbs-Darby,3,Stormwater Tree Trench,1 Stormwater Tree Trench, , , , , , , , , , , ,alt,-75.22796708,39.94288601,http://www.phillywatersheds.org/what_were_doing/,green_infrastructure/tools/stormwater_tree_trench,39.9428940744,-75.2279688736
Reese St,Constructed,Delaware,7,Stormwater Tree Trench,1 Stormwater Tree Trench, , , , , , , , , , , ,alt,-75.1430863,39.98098975,http://www.phillywatersheds.org/what_were_doing/,green_infrastructure/tools/stormwater_tree_trench,39.9809978181,-75.1430880621
Ralph Brooks Park,In Design,Schuylkill,2,Infiltration/Storage Trench, , , , , ,1 Infiltration/Storage Trench, , , , , , ,alt,-75.17772535,39.93145383,http://www.phillywatersheds.org/what_were_doing/,green_infrastructure/tools/infiltration_storage_trench,39.9314618954,-75.1777271238
Queen Lane from Henry St to Fox St,Constructed,Schuylkill,4,Stormwater Bumpout, , ,2 Stormwater Bumpouts, , , , , , , , , ,alt,-75.18509374,40.01723559,http://www.phillywatersheds.org/what_were_doing/,green_infrastructure/tools/stormwater_bumpout,40.0172436639,-75.1850955259
"Preston St, 41st St, Brown St, and Aspen St (Belmont School)",In Construction,Schuylkill,3,Stormwater Tree Trench,4 Stormwater Tree Trenches, , , , , , , , , , , ,alt,-75.20479192,39.96665795,http://www.phillywatersheds.org/what_were_doing/,green_infrastructure/tools/stormwater_tree_trench,39.966666016,-75.2047937074
Poplar St from 8th St to Franklin St,In Construction,Delaware,5,Stormwater Tree Trench,1 Stormwater Tree Trench, , , , , , , , , , , ,alt,-75.1500383,39.96785255,http://www.phillywatersheds.org/what_were_doing/,green_infrastructure/tools/stormwater_tree_trench,39.9678606177,-75.1500400648
"Pine, Larchwood, 51st (Malcolm X Park)",In Design,Schuylkill,3,Stormwater Tree Trench,1 Stormwater Tree Trench, , , , , , , , , , , ,alt,-75.22539061,39.95264717,http://www.phillywatersheds.org/what_were_doing/,green_infrastructure/tools/stormwater_tree_trench,39.9526552325,-75.2253923983
"Pine St, Frazier St, and 57th St (Andrew Hamilton School)",Constructed,Schuylkill,3,Stormwater Tree Trench,1 Stormwater Tree Trench, , , , , , , , , , , ,alt,-75.23558104,39.95469311,http://www.phillywatersheds.org/what_were_doing/,green_infrastructure/tools/stormwater_tree_trench,39.954701173,-75.2355828345
Philadelphia Zoo,Constructed,Schuylkill,4,Rain Garden, ,1 Stormwater Planter, ,7 Rain Gardens, ,6 Infiltration/Storage Trenches, , , , , , ,alt,-75.19928175,39.97467553,http://www.phillywatersheds.org/what_were_doing/,green_infrastructure/tools/rain_garden,39.9746835999,-75.1992835335
Philadelphia Protestant House,In Design,Delaware,"9, 10",Stormwater Tree Trench,1 Stormwater Tree Trench, , , , , , , , , , , ,alt,-75.08959563,40.04829363,http://www.phillywatersheds.org/what_were_doing/,green_infrastructure/tools/stormwater_tree_trench,40.0483017185,-75.0895973802
Philadelphia Military Academy,Constructed,Delaware,5,Stormwater Tree Trench,1 Stormwater Tree Trench, , , , , , , , , , , ,alt,-75.15453106,39.9852519,http://www.phillywatersheds.org/what_were_doing/,green_infrastructure/tools/stormwater_tree_trench,39.985259969,-75.1545328314
Percy St from Catharine St to Christian St,Constructed,Delaware,1,Pervious Paving, , , , , , ,1 Porous Paving Project, , , , , ,alt,-75.15820596,39.93942767,http://www.phillywatersheds.org/what_were_doing/,green_infrastructure/tools/porous_paving,39.9394357303,-75.15820773
"Pennway, Longshore, Algon, Knorr",In Design,Delaware,"7, 10",Stormwater Tree Trench,1 Stormwater Tree Trench, , , , , , , , , , , ,alt,-75.08012969,40.05000884,http://www.phillywatersheds.org/what_were_doing/,green_infrastructure/tools/stormwater_tree_trench,40.0500169252,-75.0801314407
Penn Treaty School - Moyer St,In Design,Delaware,"1, 5",Stormwater Tree Trench,1 Stormwater Tree Trench, , , , , , , , , , , ,alt,-75.1271208,39.97264814,http://www.phillywatersheds.org/what_were_doing/,green_infrastructure/tools/stormwater_tree_trench,39.9726562138,-75.1271225635
Penn Street Trail,In Construction,Delaware,1,Rain Garden, , , ,5 Rain Gardens, , , , , , , , ,alt,-75.13514904,39.96252412,http://www.phillywatersheds.org/what_were_doing/,green_infrastructure/tools/rain_garden,39.9625321877,-75.135150799
Penn St and Belfield Ave,In Design,TTF,8,Stormwater Tree Trench,1 Stormwater Tree Trench, , , , , , , , , , , ,alt,-75.16654625,40.03682653,http://www.phillywatersheds.org/what_were_doing/,green_infrastructure/tools/stormwater_tree_trench,40.0368346131,-75.166548029
Passyunk Ave from Dickinson St To Reed St,Constructed,Delaware,1,Stormwater Planter, ,1 Stormwater Planter, , , ,1 Infiltration/Storage Trench, , , , , , ,alt,-75.16160054,39.93137526,http://www.phillywatersheds.org/what_were_doing/,green_infrastructure/tools/stormwater-planter,39.931383322,-75.1616023054
Passyunk Ave,Constructed,Schuylkill,2,Stormwater Bumpout, , ,3 Stormwater Bumpouts, , , , , , , , , ,alt,-75.20732517,39.9198601,http://www.phillywatersheds.org/what_were_doing/,green_infrastructure/tools/stormwater_bumpout,39.9198681573,-75.2073269569
"Parking Lot - 12th St, Marvine St, and Diamond St",In Construction,Delaware,5,Stormwater Tree Trench,5 Stormwater Tree Trenches, , , , , , , , , , , ,alt,-75.15260423,39.98340398,http://www.phillywatersheds.org/what_were_doing/,green_infrastructure/tools/stormwater_tree_trench,39.9834120519,-75.1526060043
Park Ave,In Design,Delaware,5,Stormwater Tree Trench,1 Stormwater Tree Trench, , , , , , , , , , , ,alt,-75.15512844,39.98531484,http://www.phillywatersheds.org/what_were_doing/,green_infrastructure/tools/stormwater_tree_trench,39.9853229103,-75.1551302122
Panati Playground,In Construction,Delaware,8,Rain Garden, , , ,3 Rain Gardens, ,1 Infiltration/Storage Trench, , , , , , ,alt,-75.16535718,40.0019589,http://www.phillywatersheds.org/what_were_doing/,green_infrastructure/tools/rain_garden,40.0019669745,-75.1653589525
Palmer St from Frankford Ave to Blair St (Shissler Playground),Constructed,Delaware,7,Stormwater Tree Trench,2 Stormwater Tree Trenches, , , , , , , , , , , ,alt,-75.13290132,39.97561406,http://www.phillywatersheds.org/what_were_doing/,green_infrastructure/tools/stormwater_tree_trench,39.9756221308,-75.1329030845
Palmer Cemetery,In Design,Delaware,5,Stormwater Tree Trench,2 Stormwater Tree Trenches,1 Stormwater Planter, , , , , , , , , , ,alt,-75.1295251,39.97485592,http://www.phillywatersheds.org/what_were_doing/,green_infrastructure/tools/stormwater_tree_trench,39.9748639909,-75.1295268638
Ontario St from A St to 6th St,In Design,Delaware,7,Stormwater Tree Trench,5 Stormwater Tree Trenches, , , , , , , , , , , ,alt,-75.13335655,40.00211278,http://www.phillywatersheds.org/what_were_doing/,green_infrastructure/tools/stormwater_tree_trench,40.002120853,-75.13335831
Olney High Field : 100 E DUNCANNON AVE,In Construction,TTF,9,Other, , , , , , , , , , , , ,alt,-75.12162866,40.02809297,http://www.phillywatersheds.org/what_were_doing/,green_infrastructure/tools,40.0281010496,-75.1216304268
Old York Rd (Skevchenko Park),In Design,TTF,9,Stormwater Bumpout, , ,2 Stormwater Bumpouts, , ,1 Infiltration/Storage Trench, , , , , , ,alt,-75.14509496,40.03440176,http://www.phillywatersheds.org/what_were_doing/,green_infrastructure/tools/stormwater_bumpout,40.0344098422,-75.1450967326
Old Cathedral Cemetary,In Construction,Schuylkill,3,Stormwater Tree Trench,1 Stormwater Tree Trench, , , , , , , , , , , ,alt,-75.21730534,39.97139339,http://www.phillywatersheds.org/what_were_doing/,green_infrastructure/tools/stormwater_tree_trench,39.9714014542,-75.21730713
Ogden St and Ramsey St (West Mill Creek Recreation Center),Constructed,Schuylkill,3,Stormwater Tree Trench,2 Stormwater Tree Trenches, , , , , ,1 Porous Paving Project, , , , , ,http://www.phillywatersheds.org/what_were_doing/green_infrastructure/projects/mill_creek_tree_trench,-75.22332624,39.96709093,http://www.phillywatersheds.org/what_were_doing/,green_infrastructure/tools/stormwater_tree_trench,39.9670989956,-75.2233280349
"Oakford, 30th (Donald Finnegan Playground)",Constructed,Schuylkill,2,Stormwater Tree Trench,1 Stormwater Tree Trench, , , , , , , , , , , ,alt,-75.1926603,39.93821964,http://www.phillywatersheds.org/what_were_doing/,green_infrastructure/tools/stormwater_tree_trench,39.9382276973,-75.1926620842
"Norris St, Van Pelt St, and Berks St (Frederick Douglass Elementary School)",Constructed,Delaware,5,Stormwater Tree Trench,1 Stormwater Tree Trench, , , , , , , , , , , ,alt,-75.16967308,39.98404991,http://www.phillywatersheds.org/what_were_doing/,green_infrastructure/tools/stormwater_tree_trench,39.9840579797,-75.1696748561
Norris Square,In Planning,Delaware,7,Stormwater Tree Trench,1 Stormwater Tree Trench, , ,1 Rain Garden, , , , , , , , ,alt,-75.13468528,39.98268258,http://www.phillywatersheds.org/what_were_doing/,green_infrastructure/tools/stormwater_tree_trench,39.9826906563,-75.134687047
National Cemetery,In Design,TTF,9,Swale, , , , , , , ,3 Swales, , , , ,alt,-75.15446079,40.05780495,http://www.phillywatersheds.org/what_were_doing/,green_infrastructure/tools,40.0578130327,-75.1544625679
Moyamensing Ave and Morris St (Dickinson Square),In Construction,Delaware,1,Stormwater Tree Trench,1 Stormwater Tree Trench, ,1 Stormwater Bumpout, , ,1 Infiltration/Storage Trench, , , , , , ,alt,-75.1514425,39.92764536,http://www.phillywatersheds.org/what_were_doing/,green_infrastructure/tools/stormwater_tree_trench,39.9276534167,-75.1514442679
Moss Playground,In Design,Delaware,6,Stormwater Tree Trench,1 Stormwater Tree Trench, , ,1 Rain Garden, ,1 Infiltration/Storage Trench, , , , , , ,alt,-75.06321007,40.01639679,http://www.phillywatersheds.org/what_were_doing/,green_infrastructure/tools/stormwater_tree_trench,40.01640487,-75.0632118168
Morris Park,In Design,Cobbs-Darby,4,Stormwater Tree Trench,1 Stormwater Tree Trench, , ,1 Rain Garden, , , , , , , , ,alt,-75.25742523,39.98256196,http://www.phillywatersheds.org/what_were_doing/,green_infrastructure/tools/stormwater_tree_trench,39.982570026,-75.257427031
Morris Leeds Middle School,Constructed,TTF,9,Stormwater Tree Trench,1 Stormwater Tree Trench, , , , , , , , , , , ,alt,-75.17440844,40.07057092,http://www.phillywatersheds.org/what_were_doing/,green_infrastructure/tools/stormwater_tree_trench,40.0705790076,-75.174410225
Morris Estates,In Design,TTF,8,Stormwater Tree Trench,1 Stormwater Tree Trench, , ,1 Rain Garden, , , , , , , , ,alt,-75.14614511,40.05033083,http://www.phillywatersheds.org/what_were_doing/,green_infrastructure/tools/stormwater_tree_trench,40.0503389145,-75.1461468814
Morris Estate Playground,In Design,TTF,8,Rain Garden, , , ,1 Rain Garden, , , , , , , , ,alt,-75.14614511,40.05033083,http://www.phillywatersheds.org/what_were_doing/,green_infrastructure/tools/rain_garden,40.0503389145,-75.1461468814
"Montgomery Ave, Shissler Playground",Constructed,Delaware,7,Infiltration/Storage Trench,1 Stormwater Tree Trench, , , , ,2 Infiltration/Storage Trenches, , , , , , ,alt,-75.13210522,39.97686608,http://www.phillywatersheds.org/what_were_doing/,green_infrastructure/tools/infiltration_storage_trench,39.9768741502,-75.1321069825
"Mole, Bancroft",In Design,Schuylkill,2,Pervious Paving, , , , , , ,1 Porous Paving Project, , , , , ,alt,-75.17411158,39.92049053,http://www.phillywatersheds.org/what_were_doing/,green_infrastructure/tools/porous_paving,39.9204985841,-75.1741133517
Mole St from Fitzwater to Catharine St and Webster St from 16th to 17th,In Design,Delaware,2,Pervious Paving, , , , , , ,1 Porous Paving Project, , , , , ,alt,-75.16963472,39.94150753,http://www.phillywatersheds.org/what_were_doing/,green_infrastructure/tools/porous_paving,39.9415155931,-75.1696364907
Mill Creek Playground Basketball Court,Constructed,Schuylkill,3,Pervious Paving, , , , , , ,1 Porous Paving Project, , , , , ,http://www.phillywatersheds.org/what_were_doing/green_infrastructure/projects/porous_court_mill_creek,-75.21595905,39.96581348,http://www.phillywatersheds.org/what_were_doing/,green_infrastructure/tools/porous_paving,39.965821549,-75.2159608336
Mifflin Square,In Planning,Delaware,1,Rain Garden, , , ,1 Rain Garden, ,1 Infiltration/Storage Trench, , , , , , ,alt,-75.15651952,39.91948566,http://www.phillywatersheds.org/what_were_doing/,green_infrastructure/tools/rain_garden,39.9194937157,-75.1565212915
"Mercer, Indiana, Ann, Almond (Powers Park)",In Design,Delaware,1,Stormwater Tree Trench,2 Stormwater Tree Trenches, , , , , , , , , , , ,alt,-75.10867723,39.98264171,http://www.phillywatersheds.org/what_were_doing/,green_infrastructure/tools/stormwater_tree_trench,39.9826497878,-75.1086789808
McMahon St (Waterview Recreation Center),Constructed,TTF,8,Stormwater Tree Trench,2 Stormwater Tree Trenches,2 Stormwater Planters, , , , ,1 Porous Paving Project, , , , , ,http://www.phillywatersheds.org/what_were_doing/green_infrastructure/projects/waterview_recreation,-75.16814515,40.04551193,http://www.phillywatersheds.org/what_were_doing/,green_infrastructure/tools/stormwater_tree_trench,40.0455200086,-75.1681469251
McKinley School,In Planning,Delaware,7,Stormwater Tree Trench,1 Stormwater Tree Trench, , ,1 Rain Garden, ,1 Infiltration/Storage Trench, , , , , , ,alt,-75.14111007,39.98350578,http://www.phillywatersheds.org/what_were_doing/,green_infrastructure/tools/stormwater_tree_trench,39.9835138555,-75.1411118389
McCreesh Playground / Catharine Elementary School,In Construction,Cobbs-Darby,2,Infiltration/Storage Trench,2 Stormwater Tree Trenches, , , , ,3 Infiltration/Storage Trenches, , , , , , ,alt,-75.23994459,39.92674686,http://www.phillywatersheds.org/what_were_doing/,green_infrastructure/tools/infiltration_storage_trench,39.9267549138,-75.2399463854
Master / Wanamaker / Hobart,In Design,Schuylkill,4,Stormwater Tree Trench,3 Stormwater Tree Trenches, , , , , , , , , , , ,alt,-75.23604933,39.9731883,http://www.phillywatersheds.org/what_were_doing/,green_infrastructure/tools/stormwater_tree_trench,39.973196364,-75.2360511274
"Marston St, Eyre St, and Taney St",In Design,Schuylkill,5,Pervious Paving, , , , , , ,3 Porous Paving Projects, , , , , ,alt,-75.17903406,39.98210964,http://www.phillywatersheds.org/what_were_doing/,green_infrastructure/tools/porous_paving,39.9821177156,-75.1790358339
Marshall St from Hunting Park Ave to Cayuga St,In Design,TTF,7,Stormwater Tree Trench,1 Stormwater Tree Trench, , , , , ,1 Porous Paving Project, , , , , ,alt,-75.13765318,40.01694602,http://www.phillywatersheds.org/what_were_doing/,green_infrastructure/tools/stormwater_tree_trench,40.0169541016,-75.1376549483
Mariana Bracetti Academy Charter School,In Design,TTF,1,Stormwater Tree Trench,1 Stormwater Tree Trench,1 Stormwater Planter, , , ,1 Infiltration/Storage Trench, , , , , , ,alt,-75.0945382,40.00532447,http://www.phillywatersheds.org/what_were_doing/,green_infrastructure/tools/stormwater_tree_trench,40.0053325446,-75.094539956
Mansfield Ave,In Design,TTF,9,Stormwater Tree Trench,5 Stormwater Tree Trenches, , , , , , , , , , , ,alt,-75.16298861,40.06023276,http://www.phillywatersheds.org/what_were_doing/,green_infrastructure/tools/stormwater_tree_trench,40.0602408493,-75.1629903912
Magnolia Cemetary,Constructed,Delaware,6,Stormwater Tree Trench,1 Stormwater Tree Trench, , , , , , , , , , , ,alt,-75.05292738,40.02284869,http://www.phillywatersheds.org/what_were_doing/,green_infrastructure/tools/stormwater_tree_trench,40.022856774,-75.052929121
Madison Memorial Park,Constructed,Delaware,1,Infiltration/Storage Trench, , , , , ,1 Infiltration/Storage Trench, , , , , , ,alt,-75.14114311,39.96080543,http://www.phillywatersheds.org/what_were_doing/,green_infrastructure/tools/infiltration_storage_trench,39.9608134998,-75.1411448735
"Luzerne, Dungan, L, Lycoming (Francis Hopkinson Little School House)",In Design,TTF,7,Stormwater Tree Trench,1 Stormwater Tree Trench,1 Stormwater Planter, , , ,1 Infiltration/Storage Trench, , , , , , ,alt,-75.10232659,40.00845256,http://www.phillywatersheds.org/what_were_doing/,green_infrastructure/tools/stormwater_tree_trench,40.0084606429,-75.1023283416
Little Sisters of the Poor,In Construction,Schuylkill,3,Stormwater Tree Trench,3 Stormwater Tree Trenches, , , , , , , , , , , ,alt,-75.22159291,39.93963143,http://www.phillywatersheds.org/what_were_doing/,green_infrastructure/tools/stormwater_tree_trench,39.9396394916,-75.2215947005
Liberty Lands,Constructed,Delaware,1,Rain Garden, , , ,1 Rain Garden, , , , , , , , ,http://www.phillywatersheds.org/what_were_doing/green_infrastructure/projects/liberty_lands,-75.14183359,39.96587437,http://www.phillywatersheds.org/what_were_doing/,green_infrastructure/tools/rain_garden,39.9658824341,-75.1418353578
Leithgow / Cambridge,In Design,Delaware,5,Stormwater Tree Trench,2 Stormwater Tree Trenches, , , , , , , , , , , ,alt,-75.14393546,39.96890737,http://www.phillywatersheds.org/what_were_doing/,green_infrastructure/tools/stormwater_tree_trench,39.968915444,-75.1439372302
Lehigh Ave - Martha to Trenton,In Design,Delaware,1,Stormwater Tree Trench,2 Stormwater Tree Trenches, , , , , , , , , , , ,alt,-75.1205803,39.98511899,http://www.phillywatersheds.org/what_were_doing/,green_infrastructure/tools/stormwater_tree_trench,39.9851270591,-75.1205820559
Lawncrest Recreation Center,In Design,TTF,9,Stormwater Tree Trench,1 Stormwater Tree Trench, , ,1 Rain Garden, , , , , , , , ,alt,-75.10149179,40.04669551,http://www.phillywatersheds.org/what_were_doing/,green_infrastructure/tools/stormwater_tree_trench,40.0467035936,-75.1014935426
Lanier Playground,In Design,Schuylkill,2,Infiltration/Storage Trench, , , , , ,1 Infiltration/Storage Trench, , , , , , ,alt,-75.19374034,39.93312328,http://www.phillywatersheds.org/what_were_doing/,green_infrastructure/tools/infiltration_storage_trench,39.9331313394,-75.1937421181
Lancaster Ave from N 58th St to N 63rd St,Constructed,Schuylkill,4,Rain Garden,1 Stormwater Tree Trench, ,1 Stormwater Bumpout,3 Rain Gardens, , , , , , , , ,alt,-75.24176705,39.98301311,http://www.phillywatersheds.org/what_were_doing/,green_infrastructure/tools/rain_garden,39.9830211749,-75.241768849
Kinsey from Tackawanna St to Torresdale St,In Design,TTF,7,Other, , , , , , , , , , , ,1 Other SMP Project,alt,-75.08224533,40.00933617,http://www.phillywatersheds.org/what_were_doing/,green_infrastructure/tools,40.0093442458,-75.0822470826
Kingsessing Recreation Center,In Design,Schuylkill,3,Rain Garden, , , ,1 Rain Garden, , , ,1 Swale, , , , ,alt,-75.21715434,39.94256125,http://www.phillywatersheds.org/what_were_doing/,green_infrastructure/tools/rain_garden,39.9425693065,-75.2171561264
"Kenmore Rd, Haddington St, and Atwood Rd (Cassidy Elementary School)",In Construction,Cobbs-Darby,4,Stormwater Tree Trench,2 Stormwater Tree Trenches, , , , , , , , , , , ,alt,-75.25076646,39.9755049,http://www.phillywatersheds.org/what_were_doing/,green_infrastructure/tools/stormwater_tree_trench,39.97551297,-75.2507682587
Kemble Park,In Construction,TTF,8,Infiltration/Storage Trench, , , ,2 Rain Gardens, ,3 Infiltration/Storage Trenches, ,1 Swale, , , , ,alt,-75.14975558,40.04004393,http://www.phillywatersheds.org/what_were_doing/,green_infrastructure/tools/infiltration_storage_trench,40.0400520088,-75.1497573485
Kelly Drive Stormwater Improvements,In Design,Schuylkill,4,Swale, , , , , , , ,1 Swale, , , , ,alt,-75.19746859,39.98815922,http://www.phillywatersheds.org/what_were_doing/,green_infrastructure/tools,39.988167295,-75.197470377
"Kelley, William D. : 1601-49 N 28TH ST",In Planning,Schuylkill,5,Other, , , , , , , , , , , , ,alt,-75.18006659,39.98081455,http://www.phillywatersheds.org/what_were_doing/,green_infrastructure/tools,39.9808226238,-75.1800683634
John F Kennedy Blvd from 30th St to 32nd St,In Design,Schuylkill,3,Stormwater Tree Trench,1 Stormwater Tree Trench, , , , , , , , , , , ,alt,-75.18507981,39.95573506,http://www.phillywatersheds.org/what_were_doing/,green_infrastructure/tools/stormwater_tree_trench,39.9557431204,-75.1850815891
"Jackson St, Tree St, 13th St (Epiphany of Our Lord School)",In Construction,Delaware,1,Infiltration/Storage Trench, , , , , ,1 Infiltration/Storage Trench, , , , , , ,alt,-75.16716295,39.92233764,http://www.phillywatersheds.org/what_were_doing/,green_infrastructure/tools/infiltration_storage_trench,39.9223456988,-75.1671647236
Ivy Hills Cemetery,In Design,Wissahickon,9,Swale, , , , , , , ,1 Swale, , , , ,alt,-75.17810787,40.07368978,http://www.phillywatersheds.org/what_were_doing/,green_infrastructure/tools,40.0736978728,-75.178109656
Ingersoll Commons Park,In Design,Delaware,5,Rain Garden, , , ,1 Rain Garden, , , , , , , , ,alt,-75.16263971,39.97426577,http://www.phillywatersheds.org/what_were_doing/,green_infrastructure/tools/rain_garden,39.9742738415,-75.1626414805
Hunting Park from Old York Rd to Roosevelt Blvd,In Design,TTF,8,Infiltration/Storage Trench, , , , , ,1 Infiltration/Storage Trench, , , , , , ,alt,-75.14919515,40.01686337,http://www.phillywatersheds.org/what_were_doing/,green_infrastructure/tools/infiltration_storage_trench,40.0168714504,-75.149196922
Hunting Park,In Design,TTF,5,Stormwater Tree Trench,1 Stormwater Tree Trench, , ,1 Rain Garden, ,1 Infiltration/Storage Trench, ,1 Swale, , , , ,alt,-75.14378597,40.01713345,http://www.phillywatersheds.org/what_were_doing/,green_infrastructure/tools/stormwater_tree_trench,40.017141525,-75.1437877396
Hope St from Master to Jefferson,In Design,Delaware,5,Pervious Paving, , , , , , ,1 Porous Paving Project, , , , , ,alt,-75.135664,39.97255995,http://www.phillywatersheds.org/what_were_doing/,green_infrastructure/tools/porous_paving,39.9725680217,-75.1356657637
Hope St from Berks to Norris,In Design,Delaware,7,Pervious Paving, , , , , , ,1 Porous Paving Project, , , , , ,alt,-75.13389172,39.97946502,http://www.phillywatersheds.org/what_were_doing/,green_infrastructure/tools/porous_paving,39.9794730965,-75.133893486
"Hirst, Ludlow, Robinson",In Design,Cobbs-Darby,3,Stormwater Tree Trench,1 Stormwater Tree Trench, , , , , ,1 Porous Paving Project, , , , , ,alt,-75.24454749,39.96323782,http://www.phillywatersheds.org/what_were_doing/,green_infrastructure/tools/stormwater_tree_trench,39.9632458888,-75.2445492848
Hewson St from Blair St to Trenton Ave (Shissler Playground),Constructed,Delaware,7,Other, , , , , , , , , , , ,1 Other SMP Project,alt,-75.13173165,39.97873193,http://www.phillywatersheds.org/what_were_doing/,green_infrastructure/tools,39.9787399983,-75.1317334132
Heston Lot,In Design,Schuylkill,4,Rain Garden, , , ,1 Rain Garden, ,1 Infiltration/Storage Trench, , , , , , ,alt,-75.23182967,39.97792229,http://www.phillywatersheds.org/what_were_doing/,green_infrastructure/tools/rain_garden,39.9779303619,-75.2318314684
Herron Playground Basketball Court,Constructed,Delaware,1,Infiltration/Storage Trench, , , , , ,1 Infiltration/Storage Trench,1 Porous Paving Project, , , , , ,http://www.phillywatersheds.org/what_were_doing/green_infrastructure/projects/herron_playground,-75.14870034,39.93069614,http://www.phillywatersheds.org/what_were_doing/,green_infrastructure/tools/infiltration_storage_trench,39.930704197,-75.148702101
"Hellerman St, Cottage St, and Levick St (Roosevelt Playground)",Constructed,Delaware,6,Stormwater Planter,3 Stormwater Tree Trenches,4 Stormwater Planters, , , ,1 Infiltration/Storage Trench, , , , , , ,alt,-75.05407114,40.02562057,http://www.phillywatersheds.org/what_were_doing/,green_infrastructure/tools/stormwater-planter,40.0256286581,-75.0540728834
"Hegerman St, Magee Ave, and Hellerman St (Dorsey Playground)",Constructed,Delaware,6,Stormwater Tree Trench,3 Stormwater Tree Trenches, , , , , , , , , , , ,alt,-75.04809848,40.02161738,http://www.phillywatersheds.org/what_were_doing/,green_infrastructure/tools/stormwater_tree_trench,40.0216254674,-75.0481002205
Haverford Triangle,In Design,Schuylkill,3,Infiltration/Storage Trench, , , ,1 Rain Garden, ,2 Infiltration/Storage Trenches, ,1 Swale, , , , ,alt,-75.22001367,39.96317318,http://www.phillywatersheds.org/what_were_doing/,green_infrastructure/tools/infiltration_storage_trench,39.9631812503,-75.2200154643
"Haverford Ave, 57th St and Vine St (Shepard Recreation Center)",Constructed,Cobbs-Darby,3,Stormwater Tree Trench,3 Stormwater Tree Trenches,1 Stormwater Planter,1 Stormwater Bumpout, , , , , , , , , ,alt,-75.23471902,39.96694166,http://www.phillywatersheds.org/what_were_doing/,green_infrastructure/tools/stormwater_tree_trench,39.9669497274,-75.234720814
Harrowgate Park,In Design,Delaware,1,Rain Garden, , , ,4 Rain Gardens, , , , , , , , ,alt,-75.10639046,39.99924569,http://www.phillywatersheds.org/what_were_doing/,green_infrastructure/tools/rain_garden,39.9992537694,-75.1063922193
Harpers Hollow Park,Constructed,TTF,8,Stormwater Basin, , , , ,1 Stormwater Basin, , , , , , , ,alt,-75.15139879,40.0421532,http://www.phillywatersheds.org/what_were_doing/,green_infrastructure/tools/stormwater_basin,40.0421612843,-75.1514005667
Har Nebo Cemetery - Algon and Oxford Intersection,In Design,Delaware,"7, 19",Stormwater Tree Trench,1 Stormwater Tree Trench, , , , , , , , , , , ,alt,-75.08812267,40.04147874,http://www.phillywatersheds.org/what_were_doing/,green_infrastructure/tools/stormwater_tree_trench,40.0414868232,-75.0881244261
Happy Hollow Recreation Center,In Planning,TTF,8,Other, , , , , , , , , , , , ,alt,-75.16651139,40.02380557,http://www.phillywatersheds.org/what_were_doing/,green_infrastructure/tools,40.0238136495,-75.1665131667
Hackett School,In Construction,Delaware,1,Stormwater Tree Trench,1 Stormwater Tree Trench, , , , , , , , , , , ,alt,-75.126514,39.98114351,http://www.phillywatersheds.org/what_were_doing/,green_infrastructure/tools/stormwater_tree_trench,39.9811515844,-75.1265157562
Guerin Recreation Center,In Design,Schuylkill,2,Stormwater Tree Trench,1 Stormwater Tree Trench, , ,1 Rain Garden, , ,1 Porous Paving Project, , , , , ,alt,-75.17290832,39.92287611,http://www.phillywatersheds.org/what_were_doing/,green_infrastructure/tools/stormwater_tree_trench,39.9228841687,-75.172910093
Glenwood Triangle,In Design,Delaware,7,Rain Garden, , , ,1 Rain Garden, , , , , , , , ,alt,-75.14363694,40.00054918,http://www.phillywatersheds.org/what_were_doing/,green_infrastructure/tools/rain_garden,40.000557252,-75.1436387026
Glenwood from Pacific to Castor,In Design,Delaware,1,Stormwater Tree Trench,1 Stormwater Tree Trench, , , , , , , , , , , ,alt,-75.10127992,40.00113547,http://www.phillywatersheds.org/what_were_doing/,green_infrastructure/tools/stormwater_tree_trench,40.0011435494,-75.1012816749
Glenwood Ave from 6th St to Fairhill St,In Design,Delaware,7,Stormwater Tree Trench,1 Stormwater Tree Trench, , , , , , , , , , , ,alt,-75.13972257,40.00209704,http://www.phillywatersheds.org/what_were_doing/,green_infrastructure/tools/stormwater_tree_trench,40.0021051192,-75.1397243315
"Collins, Tulip, and Agate",In Design,Delaware,1,Stormwater Tree Trench,1 Stormwater Tree Trench, , , , , , , , , , ,1 Other SMP Project,alt,-75.10963124,39.9901049,http://www.phillywatersheds.org/what_were_doing/,green_infrastructure/tools/stormwater_tree_trench,39.9901129782,-75.1096330004
Collazo Park,In Design,Delaware,7,Stormwater Tree Trench,2 Stormwater Tree Trenches, , ,1 Rain Garden, , ,1 Porous Paving Project, , , , , ,alt,-75.13057482,39.9997026,http://www.phillywatersheds.org/what_were_doing/,green_infrastructure/tools/stormwater_tree_trench,39.9997106745,-75.1305765858
Cohocksink Recreation Center,In Construction, ,1,Stormwater Bumpout, , ,1 Stormwater Bumpout,1 Rain Garden, , , , , , , , ,alt,-75.11197714,39.98440387,http://www.phillywatersheds.org/what_were_doing/,green_infrastructure/tools/stormwater_bumpout,39.9844119459,-75.111978894
Cobbs Creek Park Reaches 6-8,In Design,Cobbs-Darby,3,Stormwater Tree Trench,1 Stormwater Tree Trench, , ,1 Rain Garden, , , ,1 Swale, , , , ,http://www.phillywatersheds.org/what_were_doing/waterways_restoration/projects/marshall_road,-75.24936064,39.95411001,http://www.phillywatersheds.org/what_were_doing/,green_infrastructure/tools/stormwater_tree_trench,39.9541180772,-75.2493624364
Cloud St from Church St to Waln St,In Design,TTF,7,Pervious Paving, , , , , , ,1 Porous Paving Project, , , , , ,alt,-75.08532858,40.01012869,http://www.phillywatersheds.org/what_were_doing/,green_infrastructure/tools/porous_paving,40.0101367707,-75.085330327
Cliveden Park,Constructed,TTF,8,Rain Garden, , , ,2 Rain Gardens, , , , , , , , ,http://www.phillywatersheds.org/what_were_doing/green_infrastructure/projects/cliveden_park,-75.17718675,40.05174837,http://www.phillywatersheds.org/what_were_doing/,green_infrastructure/tools/rain_garden,40.0517564509,-75.1771885332
Clifford from 31st to Montgomery,In Design,Schuylkill,5,Pervious Paving, , , , , , ,1 Porous Paving Project, , , , , ,alt,-75.18432073,39.98325506,http://www.phillywatersheds.org/what_were_doing/,green_infrastructure/tools/porous_paving,39.9832631347,-75.184322508
"Cleveland, Gratz, Greene, Roberts",In Design,TTF,8,Stormwater Tree Trench,1 Stormwater Tree Trench, , , , , , , , , , , ,alt,-75.15878439,40.02161706,http://www.phillywatersheds.org/what_were_doing/,green_infrastructure/tools/stormwater_tree_trench,40.021625141,-75.1587861634
Clearview Park,In Design,Schuylkill,2,Rain Garden, , , ,1 Rain Garden, , , , , , , , ,alt,-75.24600276,39.90835872,http://www.phillywatersheds.org/what_were_doing/,green_infrastructure/tools/rain_garden,39.9083667731,-75.2460045546
Clearview and Washington,In Design,TTF,8,Rain Garden, , , ,1 Rain Garden,1 Stormwater Basin,1 Infiltration/Storage Trench, , , , , , ,alt,-75.17251181,40.05110668,http://www.phillywatersheds.org/what_were_doing/,green_infrastructure/tools/rain_garden,40.051114761,-75.1725135908
Clark Park Basketball Court,Constructed,Schuylkill,3,Infiltration/Storage Trench, , , , , ,1 Infiltration/Storage Trench, , , , , , ,http://www.phillywatersheds.org/what_were_doing/green_infrastructure/projects/clark_park,-75.2098988,39.94696096,http://www.phillywatersheds.org/what_were_doing/,green_infrastructure/tools/infiltration_storage_trench,39.9469690256,-75.2099005875
"Christian St, Webster St, 56th St (Christy Recreation Center)",Constructed,Cobbs-Darby,3,Stormwater Tree Trench,3 Stormwater Tree Trenches, , , , , , , , , , , ,alt,-75.23437777,39.94868817,http://www.phillywatersheds.org/what_were_doing/,green_infrastructure/tools/stormwater_tree_trench,39.9486962288,-75.2343795667
"Chew Ave, Slocum St (Pleasant Playground)",In Design,TTF,8,Stormwater Tree Trench,2 Stormwater Tree Trenches, , , , , , , , , , , ,alt,-75.1828295,40.05670667,http://www.phillywatersheds.org/what_were_doing/,green_infrastructure/tools/stormwater_tree_trench,40.056714753,-75.1828312858
Chelten Hills Cemetery,In Design,TTF,9,Infiltration/Storage Trench,2 Stormwater Tree Trenches, ,6 Stormwater Bumpouts, , ,9 Infiltration/Storage Trenches, ,4 Swales, , , , ,alt,-75.16435277,40.06527957,http://www.phillywatersheds.org/what_were_doing/,green_infrastructure/tools/infiltration_storage_trench,40.0652876573,-75.1643545481
Chalmers (29th and Chalmers Playground),In Construction,Delaware,4,Stormwater Tree Trench,1 Stormwater Tree Trench, ,1 Stormwater Bumpout, , , , , , , , , ,alt,-75.17921339,39.99793227,http://www.phillywatersheds.org/what_were_doing/,green_infrastructure/tools/stormwater_tree_trench,39.9979403446,-75.1792151674
"Germantown Ave SFR - Phase 6 - 3rd St, Germantown Ave, and Master St",In Design,Delaware,1,Stormwater Tree Trench,1 Stormwater Tree Trench, , , , , , , , , , ,1 Other SMP Project,alt,-75.1432798,39.97180907,http://www.phillywatersheds.org/what_were_doing/,green_infrastructure/tools/stormwater_tree_trench,39.971817144,-75.1432815611
Germantown Ave SFR - Phase 5,In Design,Delaware,1,Stormwater Tree Trench,1 Stormwater Tree Trench, , , , ,1 Infiltration/Storage Trench, , , , , , ,alt,-75.13974658,39.96812558,http://www.phillywatersheds.org/what_were_doing/,green_infrastructure/tools/stormwater_tree_trench,39.9681336475,-75.1397483465
Germantown Ave SFR - Phase 4 - Laurel to Wildey,In Construction,Delaware,1,Stormwater Tree Trench,3 Stormwater Tree Trenches, , , , ,1 Infiltration/Storage Trench, , , , , , ,alt,-75.13739967,39.96636532,http://www.phillywatersheds.org/what_were_doing/,green_infrastructure/tools/stormwater_tree_trench,39.9663733909,-75.1374014333
George W. Nebinger School,Constructed,Delaware,1,Infiltration/Storage Trench, , , ,1 Rain Garden, ,2 Infiltration/Storage Trenches,2 Porous Paving Projects,1 Swale, , , , ,alt,-75.1539903,39.93686888,http://www.phillywatersheds.org/what_were_doing/,green_infrastructure/tools/infiltration_storage_trench,39.9368769458,-75.1539920713
"Gaul, Weikel, Witte",In Design,Delaware,1,Stormwater Tree Trench,5 Stormwater Tree Trenches, , , , , , , , , , , ,alt,-75.10428594,39.99015895,http://www.phillywatersheds.org/what_were_doing/,green_infrastructure/tools/stormwater_tree_trench,39.9901670292,-75.1042876931
Gathers Recreation Center,In Design,Delaware,5,Stormwater Tree Trench,1 Stormwater Tree Trench, , , , , , , , , , , ,alt,-75.17524445,39.98785644,http://www.phillywatersheds.org/what_were_doing/,green_infrastructure/tools/stormwater_tree_trench,39.9878645071,-75.175246224
"Galloway, Howard, & Hancock",In Design,Delaware,2,Stormwater Tree Trench,1 Stormwater Tree Trench, , , , , ,1 Porous Paving Project, , , , , ,alt,-75.1521904,39.91703681,http://www.phillywatersheds.org/what_were_doing/,green_infrastructure/tools/stormwater_tree_trench,39.9170448669,-75.1521921645
Front St,Constructed,Delaware,1,Stormwater Tree Trench,1 Stormwater Tree Trench, , , , , , , , , , , ,alt,-75.14604178,39.93193069,http://www.phillywatersheds.org/what_were_doing/,green_infrastructure/tools/stormwater_tree_trench,39.9319387511,-75.1460435423
Franklin St from Diamond St to Norris St,Constructed,Delaware,5,Stormwater Tree Trench,4 Stormwater Tree Trenches, , , , ,1 Infiltration/Storage Trench, , , , , , ,alt,-75.1467696,39.98189725,http://www.phillywatersheds.org/what_were_doing/,green_infrastructure/tools/stormwater_tree_trench,39.981905323,-75.1467713709
Frankford from Placid to Ellie,In Design,Pennypack,"6, 10",Other, , , , , , , , , , , , ,alt,-75.0081543,40.05216124,http://www.phillywatersheds.org/what_were_doing/,green_infrastructure/tools,40.0521693313,-75.0081560264
Francis Myers Recreation Center,In Planning,Cobbs-Darby,2,Stormwater Tree Trench,1 Stormwater Tree Trench, , , , ,1 Infiltration/Storage Trench, , , , , , ,alt,-75.22885703,39.93452541,http://www.phillywatersheds.org/what_were_doing/,green_infrastructure/tools/stormwater_tree_trench,39.9345334701,-75.2288588196
Fotterall Square,In Design,Delaware,5,Stormwater Tree Trench,1 Stormwater Tree Trench, , , , , , , , , , , ,alt,-75.15086322,39.98953004,http://www.phillywatersheds.org/what_were_doing/,green_infrastructure/tools/stormwater_tree_trench,39.9895381091,-75.1508649932
Ferko Playground,In Design,TTF,7,Stormwater Bumpout, , ,3 Stormwater Bumpouts,1 Rain Garden, ,1 Infiltration/Storage Trench, , , , , , ,alt,-75.10293809,40.01649288,http://www.phillywatersheds.org/what_were_doing/,green_infrastructure/tools/stormwater_bumpout,40.016500965,-75.1029398445
"Federal St, Wharton St, Columbus Square",In Design,Delaware,1,Stormwater Tree Trench,1 Stormwater Tree Trench, , , , ,1 Infiltration/Storage Trench, , , , , , ,alt,-75.16568281,39.93406258,http://www.phillywatersheds.org/what_were_doing/,green_infrastructure/tools/stormwater_tree_trench,39.9340706459,-75.1656845838
"Fairmount, Corinthian, 20th, Ridge",In Design,"Delaware,Schuylkill",5,Stormwater Tree Trench,2 Stormwater Tree Trenches, , , , ,2 Infiltration/Storage Trenches, , , , , , ,alt,-75.16910721,39.97033454,http://www.phillywatersheds.org/what_were_doing/,green_infrastructure/tools/stormwater_tree_trench,39.970342606,-75.16910898
Eva & Summit,Constructed,Schuylkill,4,Stormwater Basin, , , , ,2 Stormwater Basins, , , , , , , ,alt,-75.24009954,40.05629409,http://www.phillywatersheds.org/what_were_doing/,green_infrastructure/tools/stormwater_basin,40.0563021693,-75.2401013433
Erie Shopping Center,In Design,TTF,7,Stormwater Tree Trench,1 Stormwater Tree Trench,1 Stormwater Planter, , , ,1 Infiltration/Storage Trench, , , , , , ,alt,-75.09989953,40.00644665,http://www.phillywatersheds.org/what_were_doing/,green_infrastructure/tools/stormwater_tree_trench,40.0064547312,-75.0999012808
"Elmwood, 64th, Grays, 65th (Connell Park)",In Design,Schuylkill,2,Other, , , , , , , , , , , ,3 Other SMP Projects,alt,-75.23017351,39.92302423,http://www.phillywatersheds.org/what_were_doing/,green_infrastructure/tools,39.9230322916,-75.230175296
"Ellsworth, 22nd, 20th, 18th",In Design,"Delaware,Schuylkill",2,Stormwater Tree Trench,1 Stormwater Tree Trench, , , , , , , , , , , ,alt,-75.17918917,39.93840044,http://www.phillywatersheds.org/what_were_doing/,green_infrastructure/tools/stormwater_tree_trench,39.9384085061,-75.1791909476
East Park - 33rd and Cecil B Moore Ave,In Design,Schuylkill,4,Rain Garden, , , ,1 Rain Garden, , , , , , , , ,alt,-75.18998583,39.9800009,http://www.phillywatersheds.org/what_were_doing/,green_infrastructure/tools/rain_garden,39.9800089729,-75.1899876113
Earl St (Hetzell Playground),Constructed,Delaware,5,Stormwater Tree Trench,1 Stormwater Tree Trench, , , , , , , , , , , ,alt,-75.13049793,39.97249294,http://www.phillywatersheds.org/what_were_doing/,green_infrastructure/tools/stormwater_tree_trench,39.9725010126,-75.1304996942
Eadom Parking Lot,Constructed,Delaware,6,Rain Garden, , , ,6 Rain Gardens, , , , , , , , ,alt,-75.06807359,40.01046569,http://www.phillywatersheds.org/what_were_doing/,green_infrastructure/tools/rain_garden,40.0104737738,-75.0680753315
"E Hortter St, Lowber Ave, E Upsal St, Mansfield Ave (Finley Playground)",Constructed, ,8,Stormwater Tree Trench,1 Stormwater Tree Trench, ,1 Stormwater Bumpout, , , , , , , , , ,alt,-75.16951362,40.0647763,http://www.phillywatersheds.org/what_were_doing/,green_infrastructure/tools/stormwater_tree_trench,40.0647843846,-75.1695153953
"Duval St, Crittenden St, and Johnson St (Anna B. Day School)",In Construction,TTF,8,Stormwater Tree Trench,4 Stormwater Tree Trenches, , , , , , , , , , , ,alt,-75.16865842,40.05808498,http://www.phillywatersheds.org/what_were_doing/,green_infrastructure/tools/stormwater_tree_trench,40.0580930699,-75.1686601995
Drexel College of Media Arts & Design,In Design,Schuylkill,3,Stormwater Tree Trench,1 Stormwater Tree Trench, , , , , , , , , , , ,alt,-75.19277307,39.95721952,http://www.phillywatersheds.org/what_were_doing/,green_infrastructure/tools/stormwater_tree_trench,39.9572275876,-75.1927748499
Diamond St from 25th St to Stillman St,In Construction,Delaware,5,Stormwater Tree Trench,1 Stormwater Tree Trench, , , , , , , , , , , ,alt,-75.17465167,39.98705907,http://www.phillywatersheds.org/what_were_doing/,green_infrastructure/tools/stormwater_tree_trench,39.9870671415,-75.1746534507
Diamond St,Constructed,Delaware,5,Stormwater Tree Trench,1 Stormwater Tree Trench, , , , , , , , , , , ,alt,-75.17647772,39.98729776,http://www.phillywatersheds.org/what_were_doing/,green_infrastructure/tools/stormwater_tree_trench,39.9873058341,-75.1764795001
Dauphin from Frankford to Tulip,In Design,Delaware,1,Pervious Paving,1 Stormwater Tree Trench, , , , , ,3 Porous Paving Projects, , , , , ,alt,-75.12764337,39.97949269,http://www.phillywatersheds.org/what_were_doing/,green_infrastructure/tools/porous_paving,39.9795007597,-75.1276451317
Crispin St - Ryan to Lansing,In Design,Delaware,6,Stormwater Tree Trench,1 Stormwater Tree Trench, , , , , , , , , , , ,alt,-75.03842166,40.04114835,http://www.phillywatersheds.org/what_were_doing/,green_infrastructure/tools/stormwater_tree_trench,40.0411564359,-75.0384234008
Crispin St - Hartel to Rhawn,In Design,Pennypack,6,Stormwater Tree Trench,1 Stormwater Tree Trench, , , , , , , , , , , ,alt,-75.03201093,40.04378856,http://www.phillywatersheds.org/what_were_doing/,green_infrastructure/tools/stormwater_tree_trench,40.0437966504,-75.0320126668
Conestoga Community Playground,In Design,Schuylkill,3,Rain Garden, , , ,6 Rain Gardens, , , , , , , , ,alt,-75.22725214,39.97526363,http://www.phillywatersheds.org/what_were_doing/,green_infrastructure/tools/rain_garden,39.9752716984,-75.2272539351
Columbus Square,Constructed,Delaware,1,Stormwater Planter, ,4 Stormwater Planters, , , ,1 Infiltration/Storage Trench,2 Porous Paving Projects, , , , , ,alt,-75.16556704,39.9332608,http://www.phillywatersheds.org/what_were_doing/,green_infrastructure/tools/stormwater-planter,39.9332688625,-75.1655688073
"Cayuga Triangle - Cayuga, Wingohocking, and Castor",In Design,TTF,7,Other, , , , , , , , , , , , ,alt,-75.09765057,40.01349248,http://www.phillywatersheds.org/what_were_doing/,green_infrastructure/tools,40.0135005561,-75.0976523254
White Hall Commons/Carmella Playground/Gambrell Rec Cntr/WG Harding Sch,Constructed,"Delaware,TTF",1,Stormwater Tree Trench,7 Stormwater Tree Trenches, , , , , , , , , , , ,alt,-75.07499788,40.01253048,http://www.phillywatersheds.org/what_were_doing/,green_infrastructure/tools/stormwater_tree_trench,40.0125385556,-75.0749996236
"Germantown Ave (Glenwood to Sedgley), Glenwood Ave (10th to Germantown)",In Design,Delaware,7,Stormwater Tree Trench,1 Stormwater Tree Trench, , , , , , , , , , , ,alt,-75.14713403,39.99996117,http://www.phillywatersheds.org/what_were_doing/,green_infrastructure/tools/stormwater_tree_trench,39.9999692428,-75.1471357963
Carroll Park,In Design,Schuylkill,4,Stormwater Tree Trench,3 Stormwater Tree Trenches, , , , , , , , , , , ,alt,-75.23672764,39.97101441,http://www.phillywatersheds.org/what_were_doing/,green_infrastructure/tools/stormwater_tree_trench,39.9710224714,-75.2367294395
Carnell School - Langdon,In Design,Delaware,9,Stormwater Tree Trench,1 Stormwater Tree Trench, , , , , , , , , , , ,alt,-75.08537143,40.04102084,http://www.phillywatersheds.org/what_were_doing/,green_infrastructure/tools/stormwater_tree_trench,40.0410289286,-75.0853731827
Carmella Playground,In Design,"Delaware,TTF",1,Rain Garden, , , ,1 Rain Garden, ,1 Infiltration/Storage Trench, , , , , , ,alt,-75.07439915,40.01136442,http://www.phillywatersheds.org/what_were_doing/,green_infrastructure/tools/rain_garden,40.0113724972,-75.0744008937
"Camac St, Iseminger St, Juniper St, McClellan St, Pierce St, Watkins St",In Design,Delaware,1,Pervious Paving, , , , , , ,3 Porous Paving Projects, , , , , ,alt,-75.16575891,39.92765168,http://www.phillywatersheds.org/what_were_doing/,green_infrastructure/tools/porous_paving,39.9276597432,-75.1657606775
Callowhill Stormwater Trees,In Design,Delaware,1,Other, , , , , , , , , , , ,1 Other SMP Project,alt,-75.14631461,39.95768088,http://www.phillywatersheds.org/what_were_doing/,green_infrastructure/tools,39.9576889502,-75.1463163737
Bustleton Ave (Tiger III),In Construction,Delaware,6,Infiltration/Storage Trench, , , , , ,1 Infiltration/Storage Trench, , , , , , ,alt,-75.0643605,40.04171382,http://www.phillywatersheds.org/what_were_doing/,green_infrastructure/tools/infiltration_storage_trench,40.0417219056,-75.0643622402
Bureau of Laboratory Services,Constructed,TTF,7,Stormwater Planter,2 Stormwater Tree Trenches,7 Stormwater Planters, , , ,1 Infiltration/Storage Trench, , , , , , ,alt,-75.09728886,40.00932634,http://www.phillywatersheds.org/what_were_doing/,green_infrastructure/tools/stormwater-planter,40.0093344163,-75.0972906145
"Buist, 63rd, Chelwynde, 64th (Mother Mary of Peace School)",In Design,Schuylkill,2,Other, , , , , , , , , , , ,2 Other SMP Projects,alt,-75.22641866,39.92208483,http://www.phillywatersheds.org/what_were_doing/,green_infrastructure/tools,39.9220928869,-75.2264204466
"Buist Ave, 70th, Elmwood, Holbrook (Patterson School)",In Design,Schuylkill,2,Stormwater Tree Trench,2 Stormwater Tree Trenches, , , , ,1 Infiltration/Storage Trench, , , , , , ,alt,-75.23701072,39.91642402,http://www.phillywatersheds.org/what_were_doing/,green_infrastructure/tools/stormwater_tree_trench,39.9164320798,-75.2370125128
Bridge/Creston/Darrah/Penn,In Design,Delaware,"1, 6",Stormwater Tree Trench,4 Stormwater Tree Trenches, , , , , , , , , , , ,alt,-75.07608263,40.0210805,http://www.phillywatersheds.org/what_were_doing/,green_infrastructure/tools/stormwater_tree_trench,40.0210885849,-75.076084375
Bridesburg Recreation Center/Bridesburg School,Constructed,Delaware,6,Stormwater Tree Trench,2 Stormwater Tree Trenches, , ,1 Rain Garden, ,1 Infiltration/Storage Trench, , , , , , ,alt,-75.06730389,39.99934956,http://www.phillywatersheds.org/what_were_doing/,green_infrastructure/tools/stormwater_tree_trench,39.9993576345,-75.0673056298
"Brandywine St, Melon St, Synedum St",In Design,"Delaware,Schuylkill",5,Stormwater Tree Trench,3 Stormwater Tree Trenches, , , , , , , , , , , ,alt,-75.16411763,39.96516763,http://www.phillywatersheds.org/what_were_doing/,green_infrastructure/tools/stormwater_tree_trench,39.9651757007,-75.1641193991
Blue Bell Inn Triangle Park,Constructed,Cobbs-Darby,2,Rain Garden, , , ,1 Rain Garden, , , , , , , , ,alt,-75.24584996,39.91763902,http://www.phillywatersheds.org/what_were_doing/,green_infrastructure/tools/rain_garden,39.917647072,-75.2458517567
Blair St (Shissler Playground),Constructed,Delaware,7,Other, , , , , , , , , , , ,1 Other SMP Project,alt,-75.13202071,39.97739145,http://www.phillywatersheds.org/what_were_doing/,green_infrastructure/tools,39.9773995177,-75.1320224774
Black Coyle and McBride Playground,In Design,Delaware,1,Infiltration/Storage Trench, , , , , ,1 Infiltration/Storage Trench, , , , , , ,alt,-75.12344359,39.98382648,http://www.phillywatersheds.org/what_were_doing/,green_infrastructure/tools/infiltration_storage_trench,39.9838345577,-75.1234453501
"Berks, Mascher (Towey Recreation Center)",Constructed,Delaware,7,Stormwater Tree Trench,2 Stormwater Tree Trenches, , , , , , , , , , , ,alt,-75.13513114,39.9784277,http://www.phillywatersheds.org/what_were_doing/,green_infrastructure/tools/stormwater_tree_trench,39.978435769,-75.1351329004
Benson Park,In Design,Delaware,7,Stormwater Planter, ,1 Stormwater Planter, , , ,1 Infiltration/Storage Trench,1 Porous Paving Project, , , , , ,alt,-75.14282224,39.97354671,http://www.phillywatersheds.org/what_were_doing/,green_infrastructure/tools/stormwater-planter,39.9735547826,-75.1428240102
Benjamin Franklin Pkwy from 16th St to 19th St,In Design,Schuylkill,5,Infiltration/Storage Trench, , , , , ,6 Infiltration/Storage Trenches, , , , , , ,alt,-75.16777036,39.95592484,http://www.phillywatersheds.org/what_were_doing/,green_infrastructure/tools/infiltration_storage_trench,39.9559329058,-75.1677721305
Benjamin Franklin Parkway from 21st St to 23rd St,Constructed,Schuylkill,5,Infiltration/Storage Trench, , , , , ,3 Infiltration/Storage Trenches, , , , , , ,alt,-75.17568292,39.96159663,http://www.phillywatersheds.org/what_were_doing/,green_infrastructure/tools/infiltration_storage_trench,39.9616046936,-75.175684699
Belgrade St and Marlborough St,Constructed,Delaware,5,Stormwater Tree Trench,2 Stormwater Tree Trenches, , , , , , , , , , , ,alt,-75.13323504,39.9730209,http://www.phillywatersheds.org/what_were_doing/,green_infrastructure/tools/stormwater_tree_trench,39.9730289663,-75.1332368022
Belfield Ave from Chew Ave to Walnut Ln,Constructed,TTF,8,Stormwater Tree Trench,6 Stormwater Tree Trenches, , , , , , , , , , , ,alt,-75.17221229,40.04916108,http://www.phillywatersheds.org/what_were_doing/,green_infrastructure/tools/stormwater_tree_trench,40.0491691629,-75.1722140703
Belfield Ave and Armstrong St,In Design,TTF,8,Stormwater Tree Trench,1 Stormwater Tree Trench, , , , , , , , , , , ,alt,-75.16119075,40.03733622,http://www.phillywatersheds.org/what_were_doing/,green_infrastructure/tools/stormwater_tree_trench,40.037344304,-75.1611925266
Baynton St and Armat St,In Design,TTF,8,Stormwater Tree Trench,1 Stormwater Tree Trench, , , , , , , , , , , ,alt,-75.16977788,40.03762557,http://www.phillywatersheds.org/what_were_doing/,green_infrastructure/tools/stormwater_tree_trench,40.0376336494,-75.1697796593
Baltimore Ave Island from S 60th St to Wharton St,Constructed,Cobbs-Darby,3,Stormwater Tree Trench,1 Stormwater Tree Trench, , , , , , , , , , , ,alt,-75.24392769,39.9445815,http://www.phillywatersheds.org/what_were_doing/,green_infrastructure/tools/stormwater_tree_trench,39.9445895581,-75.2439294876
Baker Playground,In Design,Schuylkill,4,Rain Garden, , , ,1 Rain Garden, ,1 Infiltration/Storage Trench, , , , , , ,alt,-75.23121652,39.97737057,http://www.phillywatersheds.org/what_were_doing/,green_infrastructure/tools/rain_garden,39.9773786426,-75.2312183103
"Atlantic, Tioga (Kenderton Field Park)",In Design,Delaware,8,Stormwater Tree Trench,3 Stormwater Tree Trenches, , , , , , , , , , , ,alt,-75.16228995,40.00752658,http://www.phillywatersheds.org/what_were_doing/,green_infrastructure/tools/stormwater_tree_trench,40.007534658,-75.1622917233
Armat St and Heiskell St,In Design,TTF,8,Stormwater Tree Trench,1 Stormwater Tree Trench, , , , , , , , , , , ,alt,-75.17015629,40.0382918,http://www.phillywatersheds.org/what_were_doing/,green_infrastructure/tools/stormwater_tree_trench,40.0382998853,-75.1701580682
American Legion Playground,In Planning,Delaware,6,Other, , , , , , , , , , , , ,alt,-75.05356714,40.01870429,http://www.phillywatersheds.org/what_were_doing/,green_infrastructure/tools,40.0187123756,-75.0535688755
"Amber St, Lehigh Ave, Collins St",In Design,Delaware,1,Stormwater Tree Trench,3 Stormwater Tree Trenches, , , , , , , , , , , ,alt,-75.12257035,39.98535818,http://www.phillywatersheds.org/what_were_doing/,green_infrastructure/tools/stormwater_tree_trench,39.9853662514,-75.1225721055
Almond St - York to Boston,In Design,Delaware,1,Stormwater Tree Trench,1 Stormwater Tree Trench, , , , , , , , , , , ,alt,-75.12257478,39.97661531,http://www.phillywatersheds.org/what_were_doing/,green_infrastructure/tools/stormwater_tree_trench,39.9766233817,-75.1225765394
Allegheny Ave from Glenwood Ave to Sedgley Ave,In Design,TTF,"5, 7",Stormwater Tree Trench,1 Stormwater Tree Trench, , , , , , , , , , , ,alt,-75.14373445,40.00145081,http://www.phillywatersheds.org/what_were_doing/,green_infrastructure/tools/stormwater_tree_trench,40.0014588851,-75.1437362189
Alder St from Norris St to Diamond St,In Construction,Delaware,5,Stormwater Tree Trench,1 Stormwater Tree Trench, , , , , , , , , , , ,alt,-75.15040705,39.98311942,http://www.phillywatersheds.org/what_were_doing/,green_infrastructure/tools/stormwater_tree_trench,39.983127495,-75.1504088152
Adams Ave from Ruan to Factory,In Design,TTF,7,Infiltration/Storage Trench,1 Stormwater Tree Trench, ,1 Stormwater Bumpout, , ,2 Infiltration/Storage Trenches, , , , , , ,alt,-75.09258502,40.01288945,http://www.phillywatersheds.org/what_were_doing/,green_infrastructure/tools/infiltration_storage_trench,40.0128975261,-75.092586775
"9th St, Hoffman St, Mifflin St, Percy St, Pierce St",In Design,Delaware,1,Stormwater Tree Trench,1 Stormwater Tree Trench, , , , , ,1 Porous Paving Project, , , , , ,alt,-75.16151974,39.92375518,http://www.phillywatersheds.org/what_were_doing/,green_infrastructure/tools/stormwater_tree_trench,39.9237632425,-75.1615215098
9th St,Constructed,Delaware,5,Stormwater Tree Trench,1 Stormwater Tree Trench, , , , , , , , , , , ,alt,-75.15191764,39.96626244,http://www.phillywatersheds.org/what_were_doing/,green_infrastructure/tools/stormwater_tree_trench,39.9662705035,-75.1519194099
"8th St, Wolf St, and Mildred St (Francis Scott Key School)",In Construction,Delaware,1,Stormwater Tree Trench,1 Stormwater Tree Trench, , , , ,1 Infiltration/Storage Trench, , , , , , ,alt,-75.16054419,39.92127384,http://www.phillywatersheds.org/what_were_doing/,green_infrastructure/tools/stormwater_tree_trench,39.9212818978,-75.1605459596
8th St,Constructed,Delaware,5,Stormwater Tree Trench,1 Stormwater Tree Trench, , , , , , , , , , , ,alt,-75.15024261,39.96922896,http://www.phillywatersheds.org/what_were_doing/,green_infrastructure/tools/stormwater_tree_trench,39.9692370313,-75.1502443735
"7th St, 8th St, and Cumberland St (Hartranft School)",Constructed,Delaware,5,Stormwater Tree Trench,2 Stormwater Tree Trenches, , , , ,1 Infiltration/Storage Trench, , , , , , ,alt,-75.14524684,39.98906904,http://www.phillywatersheds.org/what_were_doing/,green_infrastructure/tools/stormwater_tree_trench,39.9890771105,-75.1452486061
73rd and Grays,In Design,Cobbs-Darby,2,Stormwater Tree Trench,2 Stormwater Tree Trenches, , , , , , , , , , , ,alt,-75.2424102,39.91526662,http://www.phillywatersheds.org/what_were_doing/,green_infrastructure/tools/stormwater_tree_trench,39.9152746703,-75.2424119974
"72nd, Buist, 71st, Dicks (Elmwood Park)",In Design,Schuylkill,2,Stormwater Tree Trench,4 Stormwater Tree Trenches, , ,2 Rain Gardens, ,1 Infiltration/Storage Trench, , , , , , ,alt,-75.23758054,39.91374383,http://www.phillywatersheds.org/what_were_doing/,green_infrastructure/tools/stormwater_tree_trench,39.91375188,-75.2375823339
"65th, 18th, Chelten, Ogontz (Mt. Airy School of God in Christ)",In Design,TTF,8,Stormwater Bumpout,2 Stormwater Tree Trenches, ,3 Stormwater Bumpouts, , , , , , , , , ,alt,-75.14911075,40.05225314,http://www.phillywatersheds.org/what_were_doing/,green_infrastructure/tools/stormwater_bumpout,40.052261225,-75.1491125252
62nd St and Lebanon (Overbrook Elementary),In Construction,Schuylkill,4,Stormwater Tree Trench,1 Stormwater Tree Trench, , , , , , , , , , , ,alt,-75.24535628,39.98292534,http://www.phillywatersheds.org/what_were_doing/,green_infrastructure/tools/stormwater_tree_trench,39.9829334129,-75.2453580818
"60th St, 61st St, Cedar Ave, and Hazel Ave (Bryant Elementary School)",Constructed,Cobbs-Darby,3,Stormwater Tree Trench,2 Stormwater Tree Trenches, , , , , , , , , , , ,alt,-75.2436513,39.95294597,http://www.phillywatersheds.org/what_were_doing/,green_infrastructure/tools/stormwater_tree_trench,39.9529540356,-75.2436530976
"59th, Vodges",In Design,"Cobbs-Darby,Schuylkill",2,Stormwater Tree Trench,2 Stormwater Tree Trenches, , , , , ,1 Porous Paving Project, , , , , ,alt,-75.22517018,39.93269906,http://www.phillywatersheds.org/what_were_doing/,green_infrastructure/tools/stormwater_tree_trench,39.9327071214,-75.2251719736
"58th St, 59th St, and Walnut St (Sayre High School)",Constructed,Cobbs-Darby,3,Stormwater Tree Trench,3 Stormwater Tree Trenches, , , , ,1 Infiltration/Storage Trench, , , , , , ,alt,-75.23867938,39.95737127,http://www.phillywatersheds.org/what_were_doing/,green_infrastructure/tools/stormwater_tree_trench,39.9573793376,-75.2386811799
"58th St Connector(Bartram""s Garden, Francis Myers Rec, Cobbs Creek Park)",Constructed,Cobbs-Darby,2,Stormwater Tree Trench,2 Stormwater Tree Trenches, , ,1 Rain Garden, , , , , , , , ,alt,-75.22499978,39.9334931,http://www.phillywatersheds.org/what_were_doing/,green_infrastructure/tools/stormwater_tree_trench,39.9335011554,-75.2250015664
57th St and Pentridge St (Longstreth School),In Construction,Cobbs-Darby,3,Stormwater Planter,1 Stormwater Tree Trench,4 Stormwater Planters, , , , , , , , , , ,alt,-75.23236236,39.94039012,http://www.phillywatersheds.org/what_were_doing/,green_infrastructure/tools/stormwater-planter,39.9403981811,-75.232364156
"56th St, 57th St, Race St, and Vine St (Daroff School)",Constructed,Cobbs-Darby,4,Stormwater Tree Trench,4 Stormwater Tree Trenches,1 Stormwater Planter,1 Stormwater Bumpout, , , ,1 Porous Paving Project, , , , , ,alt,-75.23299532,39.96496227,http://www.phillywatersheds.org/what_were_doing/,green_infrastructure/tools/stormwater_tree_trench,39.9649703368,-75.232997111
56th from Greenway to Paschall,In Design,Schuylkill,3,Stormwater Tree Trench,2 Stormwater Tree Trenches, , , , , , , , , , , ,alt,-75.22176512,39.93447502,http://www.phillywatersheds.org/what_were_doing/,green_infrastructure/tools/stormwater_tree_trench,39.93448308,-75.2217669063
53rd St and Peach St (Mastery Charter School),In Construction,Schuylkill,3,Stormwater Tree Trench,3 Stormwater Tree Trenches, , , , , , , , , , , ,alt,-75.22849319,39.97635233,http://www.phillywatersheds.org/what_were_doing/,green_infrastructure/tools/stormwater_tree_trench,39.9763603984,-75.2284949856
"52nd, 53rd, Gainor, and Diamond",In Design,Schuylkill,4,Stormwater Tree Trench,1 Stormwater Tree Trench, , , , , , , , , , , ,alt,-75.23266604,39.9894515,http://www.phillywatersheds.org/what_were_doing/,green_infrastructure/tools/stormwater_tree_trench,39.9894595743,-75.2326678352
"52nd St, 53rd St, Pine St, and Osage St (Samuel B. Huey Elementary School)",Constructed,Cobbs-Darby,3,Stormwater Tree Trench,3 Stormwater Tree Trenches, , , , , , , , , , , ,alt,-75.22726664,39.95339285,http://www.phillywatersheds.org/what_were_doing/,green_infrastructure/tools/stormwater_tree_trench,39.9534009162,-75.2272684305
50th,In Design,"Cobbs-Darby,Schuylkill",3,Other, , , , , , , , , , , , ,alt,-75.22391829,39.94963371,http://www.phillywatersheds.org/what_were_doing/,green_infrastructure/tools,39.9496417679,-75.2239200791
"4th St, 5th St, Federal St, and Washington Ave (Sacks Playground)",Constructed,Delaware,1,Stormwater Tree Trench,3 Stormwater Tree Trenches, , , , , , , , , , , ,alt,-75.1517107,39.93397345,http://www.phillywatersheds.org/what_were_doing/,green_infrastructure/tools/stormwater_tree_trench,39.933981513,-75.1517124669
4th St and Cambridge St (Bodine High School),Constructed,Delaware,1,Stormwater Tree Trench,3 Stormwater Tree Trenches,3 Stormwater Planters, , , ,1 Infiltration/Storage Trench, , , , , , ,alt,-75.14297221,39.96861635,http://www.phillywatersheds.org/what_were_doing/,green_infrastructure/tools/stormwater_tree_trench,39.9686244233,-75.1429739777
"49th St, Parrish St, and Ogden St (James Rhoads School)",In Construction,Schuylkill,3,Stormwater Tree Trench,2 Stormwater Tree Trenches, , , , , , , , , , , ,alt,-75.21954068,39.96744004,http://www.phillywatersheds.org/what_were_doing/,green_infrastructure/tools/stormwater_tree_trench,39.9674481074,-75.2195424705
"47th St, 48th St, Wyalusing Ave (Muhammed Square)",In Construction,Schuylkill,3,Stormwater Tree Trench,3 Stormwater Tree Trenches, , , , , , , , , , , ,alt,-75.21670797,39.9713802,http://www.phillywatersheds.org/what_were_doing/,green_infrastructure/tools/stormwater_tree_trench,39.9713882676,-75.2167097553
47th & Grays Ferry,Constructed,Schuylkill,3,Rain Garden, , , ,1 Rain Garden, , , , , , , , ,http://www.phillywatersheds.org/what_were_doing/green_infrastructure/projects/traffic_triangle_47th_grays,-75.20883882,39.94143397,http://www.phillywatersheds.org/what_were_doing/,green_infrastructure/tools/rain_garden,39.9414420364,-75.2088406083
43rd St (Clark Park),In Design,Schuylkill,3,Infiltration/Storage Trench, , , , , ,1 Infiltration/Storage Trench, , , , , , ,alt,-75.2091564,39.94897126,http://www.phillywatersheds.org/what_were_doing/,green_infrastructure/tools/infiltration_storage_trench,39.9489793259,-75.209158189
43rd St & 45th St,In Design,Schuylkill,3,Stormwater Tree Trench,3 Stormwater Tree Trenches, , , , , , , , , , , ,alt,-75.20966822,39.95771022,http://www.phillywatersheds.org/what_were_doing/,green_infrastructure/tools/stormwater_tree_trench,39.9577182825,-75.209670005
40th and Baltimore,In Design,Schuylkill,3,Stormwater Tree Trench,1 Stormwater Tree Trench, , , , , , , , , , , ,alt,-75.20296562,39.94935164,http://www.phillywatersheds.org/what_were_doing/,green_infrastructure/tools/stormwater_tree_trench,39.9493597035,-75.2029673987
3rd St and Fairmount Ave Intersection,Constructed,Delaware,1,Stormwater Tree Trench,1 Stormwater Tree Trench, ,1 Stormwater Bumpout, , , , , , , , , ,alt,-75.14321568,39.96287658,http://www.phillywatersheds.org/what_were_doing/,green_infrastructure/tools/stormwater_tree_trench,39.9628846497,-75.1432174402
37th & Mt Vernon Playground,In Design,Schuylkill,3,Rain Garden, , , ,1 Rain Garden, ,1 Infiltration/Storage Trench, , , , , , ,alt,-75.19650377,39.9639692,http://www.phillywatersheds.org/what_were_doing/,green_infrastructure/tools/rain_garden,39.9639772645,-75.1965055528
33rd & Dauphin SEPTA Bus Stop Loop,In Construction,Schuylkill,4,Stormwater Tree Trench,1 Stormwater Tree Trench, , , , , , , , , , , ,alt,-75.18600294,39.99094242,http://www.phillywatersheds.org/what_were_doing/,green_infrastructure/tools/stormwater_tree_trench,39.9909504944,-75.1860047225
29th & Cambria PWD Facility Employee Parking Lot,In Design,Delaware,4,Stormwater Tree Trench,1 Stormwater Tree Trench,1 Stormwater Planter, , , ,1 Infiltration/Storage Trench, , , , , , ,alt,-75.17726543,39.99934828,http://www.phillywatersheds.org/what_were_doing/,green_infrastructure/tools/stormwater_tree_trench,39.999356355,-75.1772672094
27th St from Indiana to Toronto,In Construction,Delaware,4,Stormwater Tree Trench,1 Stormwater Tree Trench, , , , , , , , , , , ,alt,-75.17442003,40.00163942,http://www.phillywatersheds.org/what_were_doing/,green_infrastructure/tools/stormwater_tree_trench,40.0016474932,-75.1744218058
24th St and Wolf St (Smith Playground),Constructed,Schuylkill,2,Stormwater Tree Trench,2 Stormwater Tree Trenches, , , , , , , , , , , ,alt,-75.18737152,39.92529842,http://www.phillywatersheds.org/what_were_doing/,green_infrastructure/tools/stormwater_tree_trench,39.9253064747,-75.1873732979
24th St and Diamond St (Dick Elementary School),In Construction,Delaware,5,Stormwater Tree Trench,2 Stormwater Tree Trenches, , , , , , , , , , , ,alt,-75.17360061,39.98615529,http://www.phillywatersheds.org/what_were_doing/,green_infrastructure/tools/stormwater_tree_trench,39.9861633658,-75.1736023891
"23rd St, 24th St, and Jackson (E.H. Vare Middle School)",Constructed,Schuylkill,2,Stormwater Tree Trench,2 Stormwater Tree Trenches, , , , , , , , , , , ,alt,-75.18541908,39.92575871,http://www.phillywatersheds.org/what_were_doing/,green_infrastructure/tools/stormwater_tree_trench,39.9257667682,-75.1854208519
"22nd, Carpenter, Montrose (Julian Abele Park)",Constructed,Schuylkill,2,Stormwater Tree Trench,1 Stormwater Tree Trench, , , , , , , , , , , ,alt,-75.1787228,39.94082595,http://www.phillywatersheds.org/what_were_doing/,green_infrastructure/tools/stormwater_tree_trench,39.940834011,-75.1787245738
"22nd St, Cecil B Moore Ave (Martin Luther King Recreation Center)",Constructed,Delaware,5,Stormwater Tree Trench,2 Stormwater Tree Trenches, , , , , , , , , , , ,alt,-75.17006261,39.98103225,http://www.phillywatersheds.org/what_were_doing/,green_infrastructure/tools/stormwater_tree_trench,39.9810403186,-75.1700643857
21st St from Venango to Pacific,Constructed,Delaware,8,Stormwater Tree Trench,1 Stormwater Tree Trench, , , , , , , , , , , ,alt,-75.16289153,40.00949962,http://www.phillywatersheds.org/what_were_doing/,green_infrastructure/tools/stormwater_tree_trench,40.0095077002,-75.1628933022
"20th, Limekiln, Ridley, and 65th (Kinsey School)",In Design,TTF,9,Stormwater Tree Trench,2 Stormwater Tree Trenches, , , , , , , , , , , ,alt,-75.1521284,40.05361493,http://www.phillywatersheds.org/what_were_doing/,green_infrastructure/tools/stormwater_tree_trench,40.0536230121,-75.1521301746
"19th, Haines (Rowen William School)",In Design,TTF,9,Stormwater Tree Trench,1 Stormwater Tree Trench, , , , , , , , , , , ,alt,-75.14813961,40.05838013,http://www.phillywatersheds.org/what_were_doing/,green_infrastructure/tools/stormwater_tree_trench,40.0583882171,-75.1481413793
"18th St, 19th St, Ellsworth St, and Washington Ave (Chew Playground)",Constructed,Delaware,2,Stormwater Tree Trench,4 Stormwater Tree Trenches, ,2 Stormwater Bumpouts, , , , , , , , , ,alt,-75.17406306,39.93824286,http://www.phillywatersheds.org/what_were_doing/,green_infrastructure/tools/stormwater_tree_trench,39.9382509221,-75.1740648317
"18th St, 19th St, and Bigler St (Barry Playground)",In Construction,Schuylkill,2,Stormwater Tree Trench,5 Stormwater Tree Trenches, , , , , , , , , , , ,alt,-75.17893691,39.91578732,http://www.phillywatersheds.org/what_were_doing/,green_infrastructure/tools/stormwater_tree_trench,39.9157953822,-75.1789386805
"16th St, Sydenham St, and Cumberland St (HM Stanton School)",In Design,Delaware,5,Stormwater Tree Trench,1 Stormwater Tree Trench, , , , , , , , , , , ,alt,-75.15802697,39.99168723,http://www.phillywatersheds.org/what_were_doing/,green_infrastructure/tools/stormwater_tree_trench,39.9916952994,-75.1580287391
16th St between Passyunk Ave and Jackson St,Constructed,Schuylkill,2,Stormwater Tree Trench,1 Stormwater Tree Trench, , , , , , , , , , , ,alt,-75.17308653,39.92419696,http://www.phillywatersheds.org/what_were_doing/,green_infrastructure/tools/stormwater_tree_trench,39.9242050231,-75.1730882988
"13th St, Porter St, and Moyamensing Ave (A.S. Jenks School)",Constructed,Delaware,1,Stormwater Tree Trench,2 Stormwater Tree Trenches, , , , , , , , , , , ,alt,-75.16796088,39.91870303,http://www.phillywatersheds.org/what_were_doing/,green_infrastructure/tools/stormwater_tree_trench,39.9187110886,-75.1679626461
12th St from Dickinson St to Tasker St,Constructed,Delaware,1,Stormwater Tree Trench,2 Stormwater Tree Trenches,1 Stormwater Planter, , , , , , , , , , ,alt,-75.1640655,39.93053283,http://www.phillywatersheds.org/what_were_doing/,green_infrastructure/tools/stormwater_tree_trench,39.9305408899,-75.1640672653
12th St and Reed St (Columbus Square),Constructed,Delaware,1,Rain Garden, , , ,1 Rain Garden, , , , , , , , ,alt,-75.16478579,39.93307292,http://www.phillywatersheds.org/what_were_doing/,green_infrastructure/tools/rain_garden,39.9330809835,-75.1647875564
12th and Cambria Recreation Center,In Design,Delaware,5,Infiltration/Storage Trench, , , , , ,1 Infiltration/Storage Trench, , , , , , ,alt,-75.14926039,39.99684149,http://www.phillywatersheds.org/what_were_doing/,green_infrastructure/tools/infiltration_storage_trench,39.9968495639,-75.1492621562
10th St from Wilder St to Reed St,Constructed,Delaware,1,Stormwater Tree Trench,1 Stormwater Tree Trench, , , , , , , , , , , ,alt,-75.16110706,39.93150006,http://www.phillywatersheds.org/what_were_doing/,green_infrastructure/tools/stormwater_tree_trench,39.9315081247,-75.1611088291
10th St and Jefferson St (Dendy Recreation Center),In Construction,Delaware,5,Stormwater Tree Trench,2 Stormwater Tree Trenches, , , , , , , , , , , ,alt,-75.15080116,39.97557324,http://www.phillywatersheds.org/what_were_doing/,green_infrastructure/tools/stormwater_tree_trench,39.9755813126,-75.1508029324
Springside School,Constructed,Wissahickon,8,Rain Garden, , , ,Rain Garden, , , , , , , , ,http://www.phillywatersheds.org/what_were_doing/green_infrastructure/projects/springside_school,-75.21389645,40.06040377,http://www.phillywatersheds.org/what_were_doing/,green_infrastructure/projects/springside_school,40.0604118543,-75.2138982453
Vacant Land - 5th and Norris Streets,Constructed,Delaware,7,Other, , , , , , , , , , , ,Other Project,http://www.phillywatersheds.org/what_were_doing/green_infrastructure/tools,-75.14254675,39.98134637,http://www.phillywatersheds.org/what_were_doing/,green_infrastructure/tools,39.9813544426,-75.1425485125
Blackwell Homes,Constructed,Schuylkill,3,Infiltration/Storage Trench, , , , , , , , , , , ,Other Project,http://www.phillywatersheds.org/what_were_doing/traditional_infrastructure/projects/blackwell_homes,-75.21516295,39.96418947,http://www.phillywatersheds.org/what_were_doing/,traditional_infrastructure/projects/blackwell_homes,39.9641975372,-75.2151647377
Vacant Land - 3rd and Norris Streets,Constructed,Delaware,7,Other, , , , , , , , , , , ,Other Project,http://www.phillywatersheds.org/what_were_doing/green_infrastructure/tools,-75.13969203,39.98098006,http://www.phillywatersheds.org/what_were_doing/,green_infrastructure/tools,39.9809881306,-75.1396937935
School of the Future,Constructed,Schuylkill,4,Green Roof, , , , , , ,Porous Paving, , ,Cistern or Rain Barrel,Green Roof, ,http://www.phillywatersheds.org/what_were_doing/green_infrastructure/projects/school_of_the_future,-75.203489,39.975166,http://www.phillywatersheds.org/what_were_doing/,green_infrastructure/projects/school_of_the_future,39.9751740681,-75.2034907846
Armat St and Heiskell St,Constructed,TTF,8,Stormwater Tree Trench,Stormwater Tree Trench, , , , , , , , , , , ,http://www.phillywatersheds.org/what_were_doing/green_infrastructure/tools/stormwater_tree_trench,-75.169736,40.038478,http://www.phillywatersheds.org/what_were_doing/,green_infrastructure/tools/stormwater_tree_trench,40.0384860822,-75.1697377784
Wissahickon Charter School,Constructed,Schuylkill,4,Rain Garden, , , ,Rain Garden, , , , , , , , ,http://www.phillywatersheds.org/what_were_doing/green_infrastructure/projects/wissahickon_charter,-75.17245731,40.01566736,http://www.phillywatersheds.org/what_were_doing/,green_infrastructure/projects/wissahickon_charter,40.0156754375,-75.1724590872
Pennypack Park,Constructed,Pennypack,10,Stormwater Wetland, , , , , , ,Porous Paving, ,Stormwater Wetland, , , ,http://www.phillywatersheds.org/what_were_doing/green_infrastructure/tools/stormwater_wetland,-75.06207,40.085261,http://www.phillywatersheds.org/what_were_doing/,green_infrastructure/tools/stormwater_wetland,40.0852690949,-75.0620717466
Greenfield Elementary School,Constructed,Schuylkill,1,Rain Garden, , , ,Rain Garden, , ,Porous Paving, , , , , ,http://www.phillywatersheds.org/what_were_doing/green_infrastructure/tools/rain_garden,-75.17773408,39.95198262,http://www.phillywatersheds.org/what_were_doing/,green_infrastructure/tools/rain_garden,39.9519906847,-75.1777358585
Frankford Ave - Pike to Hunting Park,Constructed,TTF,1,Stormwater Tree Trench,Stormwater Tree Trench, , , , , , , , , , , ,http://www.phillywatersheds.org/what_were_doing/green_infrastructure/tools/stormwater_tree_trench,-75.093507,40.004505,http://www.phillywatersheds.org/what_were_doing/,green_infrastructure/tools/stormwater_tree_trench,40.0045130779,-75.0935087518
Vacant Land - 2301 Gratz Street,Constructed,Delaware,5,Other, , , , , , , , , , , ,Other Project,http://www.phillywatersheds.org/what_were_doing/green_infrastructure/tools,-75.16312287,39.98890072,http://www.phillywatersheds.org/what_were_doing/,green_infrastructure/tools,39.9889087931,-75.1631246422
Union Hill,Constructed,Schuylkill,3,Stormwater Tree Trench,Stormwater Tree Trench, , , , , , , , , , ,Other Project,http://www.phillywatersheds.org/what_were_doing/green_infrastructure/tools/stormwater_tree_trench,-75.20170806,39.96586978,http://www.phillywatersheds.org/what_were_doing/,green_infrastructure/tools/stormwater_tree_trench,39.9658778479,-75.2017098425
East Falls Parking Lot,Constructed,Schuylkill,4,Rain Garden, , , ,Rain Garden, , , , , , , , ,http://www.phillywatersheds.org/what_were_doing/green_infrastructure/tools/rain_garden,-75.19198236,40.00717411,http://www.phillywatersheds.org/what_were_doing/,green_infrastructure/tools/rain_garden,40.0071821875,-75.1919841408
Saylor Grove,Constructed,Wissahickon,"4, 8",Stormwater Wetland, , , , , , , , ,Stormwater Wetland, , , ,http://www.phillywatersheds.org/what_were_doing/green_infrastructure/projects/saylor_grove,-75.18619433,40.02946998,http://www.phillywatersheds.org/what_were_doing/,green_infrastructure/projects/saylor_grove,40.0294780586,-75.1861961161
Awbury Arboretum,Constructed,TTF,8,Swale, , , , , , , ,Swale, , , , ,http://www.phillywatersheds.org/what_were_doing/waterways_restoration/projects/awbury_arboretum,-75.17084759,40.05229867,http://www.phillywatersheds.org/what_were_doing/,waterways_restoration/projects/awbury_arboretum,40.0523067554,-75.170849367
Allens Lane Art Center Basketball Court,Constructed,Wissahickon,8,Pervious Paving, , , , , , ,Porous Paving, , , , , ,http://www.phillywatersheds.org/what_were_doing/green_infrastructure/projects/allens_lane_porous,-75.20091138,40.05280705,http://www.phillywatersheds.org/what_were_doing/,green_infrastructure/projects/allens_lane_porous,40.0528151369,-75.2009131656
Oxford Levick Center,Constructed,Delaware,9,Stormwater Planter, ,Stormwater Planter, , , , , , , , , , ,http://www.phillywatersheds.org/what_were_doing/green_infrastructure/tools/stormwater-planter,-75.086687,40.044696,http://www.phillywatersheds.org/what_were_doing/,green_infrastructure/tools/stormwater-planter,40.0447040866,-75.0866887525
Independence Charter School,Constructed,Delaware,2,Rain Garden, , , ,Rain Garden, , ,Porous Paving, , , , , ,http://www.phillywatersheds.org/what_were_doing/green_infrastructure/tools/rain_garden,-75.16894816,39.94493823,http://www.phillywatersheds.org/what_were_doing/,green_infrastructure/tools/rain_garden,39.9449462948,-75.168949937
Vacant Land - 7th St and Germantown Ave,Constructed,Delaware,5,Other, , , , , , , , , , , ,Other Project,http://www.phillywatersheds.org/what_were_doing/green_infrastructure/tools,-75.14512691,39.98648618,http://www.phillywatersheds.org/what_were_doing/,green_infrastructure/tools,39.9864942551,-75.1451286765
Police Forensic Center,Constructed,Delaware,5,Rain Garden, , , ,Rain Garden, , , , , , , , ,http://www.phillywatersheds.org/what_were_doing/green_infrastructure/projects/police_forensic,-75.15010476,39.96741134,http://www.phillywatersheds.org/what_were_doing/,green_infrastructure/projects/police_forensic,39.9674194128,-75.150106528
Penn Alexander School,Constructed,Schuylkill,3,Rain Garden, , , ,Rain Garden, , ,Porous Paving, , , , , ,http://www.phillywatersheds.org/what_were_doing/green_infrastructure/tools/rain_garden,-75.20820402,39.95316892,http://www.phillywatersheds.org/what_were_doing/,green_infrastructure/tools/rain_garden,39.9531769854,-75.2082058013
